<?xml version="1.0" encoding="UTF-8"?>
<kml xmlns="http://www.opengis.net/kml/2.2"><Document>
<name>Árboles patrimoniales de la Ciudad de México</name>
<description>Capa de puntos del registro de árboles patrimoniales. Fuente: Secretaría del Medio Ambiente de la Ciudad de México.</description>
<Placemark><name>Tacuba</name><description>Taxodium mucronatum</description><ExtendedData><Data name="ID"><displayName>Identificador en el registro</displayName><value>25-MIH-TAX-19405GIMNO-0001</value></Data><Data name="CONSEC"><displayName>Consecutivo</displayName><value>0001</value></Data><Data name="NOMBRE"><displayName>Nombre asignado</displayName><value>Tacuba</value></Data><Data name="ESPECIE"><displayName>Especie</displayName><value>Taxodium mucronatum</value></Data><Data name="N_COMUN"><displayName>Nombre común</displayName><value>Ahuehuete</value></Data><Data name="CATEGORIA"><displayName>Categorías declaradas</displayName><value>CENTENARIO; HISTORICO; NOTABLE</value></Data><Data name="F_DECRETO"><displayName>Fecha del decreto</displayName><value>2026-06-01</value></Data><Data name="ALCALDIA"><displayName>Alcaldía</displayName><value>Miguel Hidalgo</value></Data><Data name="COLONIA"><displayName>Colonia</displayName><value>Tacuba</value></Data><Data name="DOMICILIO"><displayName>Calle y número</displayName><value>Avenida Marina Nacional S/N</value></Data><Data name="TIPO_UBIC"><displayName>Tipo de ubicación</displayName><value>Banqueta</value></Data><Data name="ALTURA_M"><displayName>Altura en metros</displayName><value>16.8</value></Data><Data name="DAP_CM"><displayName>Diámetro normal (DN) del tronco en centímetros</displayName><value>331</value></Data><Data name="COPA_M"><displayName>Diámetro promedio de copa en metros</displayName><value>16.5</value></Data><Data name="EDAD_ANIO"><displayName>Edad estimada en años</displayName><value></value></Data><Data name="RIESGO"><displayName>Categoría de riesgo UICN de la especie</displayName><value>Preocupación menor (LC)</value></Data></ExtendedData><Point><coordinates>-99.188791,19.457671,0</coordinates></Point></Placemark>
<Placemark><name>Jardin San Fernando</name><description>Taxodium mucronatum</description><ExtendedData><Data name="ID"><displayName>Identificador en el registro</displayName><value>25-CUH-TAX-19405GIMNO-0002</value></Data><Data name="CONSEC"><displayName>Consecutivo</displayName><value>0002</value></Data><Data name="NOMBRE"><displayName>Nombre asignado</displayName><value>Jardin San Fernando</value></Data><Data name="ESPECIE"><displayName>Especie</displayName><value>Taxodium mucronatum</value></Data><Data name="N_COMUN"><displayName>Nombre común</displayName><value>Ahuehuete</value></Data><Data name="CATEGORIA"><displayName>Categorías declaradas</displayName><value>NOTABLE</value></Data><Data name="F_DECRETO"><displayName>Fecha del decreto</displayName><value>2026-05-28</value></Data><Data name="ALCALDIA"><displayName>Alcaldía</displayName><value>Cuauhtémoc</value></Data><Data name="COLONIA"><displayName>Colonia</displayName><value>Guerrero</value></Data><Data name="DOMICILIO"><displayName>Calle y número</displayName><value>Eje 1 Poniente Guerrero S/N</value></Data><Data name="TIPO_UBIC"><displayName>Tipo de ubicación</displayName><value>Jardín público</value></Data><Data name="ALTURA_M"><displayName>Altura en metros</displayName><value>25.4</value></Data><Data name="DAP_CM"><displayName>Diámetro normal (DN) del tronco en centímetros</displayName><value>158.3</value></Data><Data name="COPA_M"><displayName>Diámetro promedio de copa en metros</displayName><value>16.9</value></Data><Data name="EDAD_ANIO"><displayName>Edad estimada en años</displayName><value></value></Data><Data name="RIESGO"><displayName>Categoría de riesgo UICN de la especie</displayName><value>Preocupación menor (LC)</value></Data></ExtendedData><Point><coordinates>-99.148823,19.438349,0</coordinates></Point></Placemark>
<Placemark><name>San Diego Churubusco</name><description>Taxodium mucronatum</description><ExtendedData><Data name="ID"><displayName>Identificador en el registro</displayName><value>25-COY-TAX-19405GIMNO-0003</value></Data><Data name="CONSEC"><displayName>Consecutivo</displayName><value>0003</value></Data><Data name="NOMBRE"><displayName>Nombre asignado</displayName><value>San Diego Churubusco</value></Data><Data name="ESPECIE"><displayName>Especie</displayName><value>Taxodium mucronatum</value></Data><Data name="N_COMUN"><displayName>Nombre común</displayName><value>Ahuehuete</value></Data><Data name="CATEGORIA"><displayName>Categorías declaradas</displayName><value>HISTORICO; NOTABLE</value></Data><Data name="F_DECRETO"><displayName>Fecha del decreto</displayName><value>2026-06-02</value></Data><Data name="ALCALDIA"><displayName>Alcaldía</displayName><value>Coyoacán</value></Data><Data name="COLONIA"><displayName>Colonia</displayName><value>San Diego Churubusco</value></Data><Data name="DOMICILIO"><displayName>Calle y número</displayName><value>Calle 20 de agosto S/N</value></Data><Data name="TIPO_UBIC"><displayName>Tipo de ubicación</displayName><value>Plaza</value></Data><Data name="ALTURA_M"><displayName>Altura en metros</displayName><value>17.8</value></Data><Data name="DAP_CM"><displayName>Diámetro normal (DN) del tronco en centímetros</displayName><value>366</value></Data><Data name="COPA_M"><displayName>Diámetro promedio de copa en metros</displayName><value>20.96</value></Data><Data name="EDAD_ANIO"><displayName>Edad estimada en años</displayName><value></value></Data><Data name="RIESGO"><displayName>Categoría de riesgo UICN de la especie</displayName><value>Preocupación menor (LC)</value></Data></ExtendedData><Point><coordinates>-99.148478,19.354239,0</coordinates></Point></Placemark>
<Placemark><name>Jardín Ramón López Velarde</name><description>Taxodium mucronatum</description><ExtendedData><Data name="ID"><displayName>Identificador en el registro</displayName><value>25-CUH-TAX-19405GIMNO-0004</value></Data><Data name="CONSEC"><displayName>Consecutivo</displayName><value>0004</value></Data><Data name="NOMBRE"><displayName>Nombre asignado</displayName><value>Jardín Ramón López Velarde</value></Data><Data name="ESPECIE"><displayName>Especie</displayName><value>Taxodium mucronatum</value></Data><Data name="N_COMUN"><displayName>Nombre común</displayName><value>Ahuehuete</value></Data><Data name="CATEGORIA"><displayName>Categorías declaradas</displayName><value>NOTABLE</value></Data><Data name="F_DECRETO"><displayName>Fecha del decreto</displayName><value>2026-06-29</value></Data><Data name="ALCALDIA"><displayName>Alcaldía</displayName><value>Cuauhtémoc</value></Data><Data name="COLONIA"><displayName>Colonia</displayName><value>Roma Sur</value></Data><Data name="DOMICILIO"><displayName>Calle y número</displayName><value>Eje 1 Poniente Avenida Cuauhtémoc S/N</value></Data><Data name="TIPO_UBIC"><displayName>Tipo de ubicación</displayName><value>Jardín público</value></Data><Data name="ALTURA_M"><displayName>Altura en metros</displayName><value>25.6</value></Data><Data name="DAP_CM"><displayName>Diámetro normal (DN) del tronco en centímetros</displayName><value>144</value></Data><Data name="COPA_M"><displayName>Diámetro promedio de copa en metros</displayName><value>18.65</value></Data><Data name="EDAD_ANIO"><displayName>Edad estimada en años</displayName><value></value></Data><Data name="RIESGO"><displayName>Categoría de riesgo UICN de la especie</displayName><value>Preocupación menor (LC)</value></Data></ExtendedData><Point><coordinates>-99.155441,19.409119,0</coordinates></Point></Placemark>
<Placemark><name>Parque España</name><description>Taxodium mucronatum</description><ExtendedData><Data name="ID"><displayName>Identificador en el registro</displayName><value>25-CUH-TAX-19405GIMNO-0005</value></Data><Data name="CONSEC"><displayName>Consecutivo</displayName><value>0005</value></Data><Data name="NOMBRE"><displayName>Nombre asignado</displayName><value>Parque España</value></Data><Data name="ESPECIE"><displayName>Especie</displayName><value>Taxodium mucronatum</value></Data><Data name="N_COMUN"><displayName>Nombre común</displayName><value>Ahuehuete</value></Data><Data name="CATEGORIA"><displayName>Categorías declaradas</displayName><value>CENTENARIO; HISTORICO; NOTABLE</value></Data><Data name="F_DECRETO"><displayName>Fecha del decreto</displayName><value>2026-06-01</value></Data><Data name="ALCALDIA"><displayName>Alcaldía</displayName><value>Cuauhtémoc</value></Data><Data name="COLONIA"><displayName>Colonia</displayName><value>Condesa</value></Data><Data name="DOMICILIO"><displayName>Calle y número</displayName><value>Avenida Sonora S/N</value></Data><Data name="TIPO_UBIC"><displayName>Tipo de ubicación</displayName><value>Parque</value></Data><Data name="ALTURA_M"><displayName>Altura en metros</displayName><value>29.8</value></Data><Data name="DAP_CM"><displayName>Diámetro normal (DN) del tronco en centímetros</displayName><value>149.5</value></Data><Data name="COPA_M"><displayName>Diámetro promedio de copa en metros</displayName><value>20.9</value></Data><Data name="EDAD_ANIO"><displayName>Edad estimada en años</displayName><value></value></Data><Data name="RIESGO"><displayName>Categoría de riesgo UICN de la especie</displayName><value>Preocupación menor (LC)</value></Data></ExtendedData><Point><coordinates>-99.170486,19.41616,0</coordinates></Point></Placemark>
<Placemark><name>Viejo del Agua</name><description>Taxodium mucronatum</description><ExtendedData><Data name="ID"><displayName>Identificador en el registro</displayName><value>25-AZC-TAX-19405GIMNO-0006</value></Data><Data name="CONSEC"><displayName>Consecutivo</displayName><value>0006</value></Data><Data name="NOMBRE"><displayName>Nombre asignado</displayName><value>Viejo del Agua</value></Data><Data name="ESPECIE"><displayName>Especie</displayName><value>Taxodium mucronatum</value></Data><Data name="N_COMUN"><displayName>Nombre común</displayName><value>Ahuehuete</value></Data><Data name="CATEGORIA"><displayName>Categorías declaradas</displayName><value>CENTENARIO; HISTORICO; NOTABLE</value></Data><Data name="F_DECRETO"><displayName>Fecha del decreto</displayName><value>2025-08-04</value></Data><Data name="ALCALDIA"><displayName>Alcaldía</displayName><value>Azcapotzalco</value></Data><Data name="COLONIA"><displayName>Colonia</displayName><value>Santa Catarina</value></Data><Data name="DOMICILIO"><displayName>Calle y número</displayName><value>Calle Central S/N</value></Data><Data name="TIPO_UBIC"><displayName>Tipo de ubicación</displayName><value>Jardinera</value></Data><Data name="ALTURA_M"><displayName>Altura en metros</displayName><value>27</value></Data><Data name="DAP_CM"><displayName>Diámetro normal (DN) del tronco en centímetros</displayName><value>440</value></Data><Data name="COPA_M"><displayName>Diámetro promedio de copa en metros</displayName><value>27</value></Data><Data name="EDAD_ANIO"><displayName>Edad estimada en años</displayName><value>600</value></Data><Data name="RIESGO"><displayName>Categoría de riesgo UICN de la especie</displayName><value>Preocupación menor (LC)</value></Data></ExtendedData><Point><coordinates>-99.177133,19.491067,0</coordinates></Point></Placemark>
<Placemark><name>Santa Catarina</name><description>Fraxinus uhdei</description><ExtendedData><Data name="ID"><displayName>Identificador en el registro</displayName><value>25-COY-FRA-30222ANGIO-0008</value></Data><Data name="CONSEC"><displayName>Consecutivo</displayName><value>0008</value></Data><Data name="NOMBRE"><displayName>Nombre asignado</displayName><value>Santa Catarina</value></Data><Data name="ESPECIE"><displayName>Especie</displayName><value>Fraxinus uhdei</value></Data><Data name="N_COMUN"><displayName>Nombre común</displayName><value>Fresno Mexicano</value></Data><Data name="CATEGORIA"><displayName>Categorías declaradas</displayName><value>NOTABLE</value></Data><Data name="F_DECRETO"><displayName>Fecha del decreto</displayName><value>2026-06-03</value></Data><Data name="ALCALDIA"><displayName>Alcaldía</displayName><value>Coyoacán</value></Data><Data name="COLONIA"><displayName>Colonia</displayName><value>Santa Catarina</value></Data><Data name="DOMICILIO"><displayName>Calle y número</displayName><value>Avenida Francisco Sosa 202-A</value></Data><Data name="TIPO_UBIC"><displayName>Tipo de ubicación</displayName><value>Banqueta</value></Data><Data name="ALTURA_M"><displayName>Altura en metros</displayName><value>24.6</value></Data><Data name="DAP_CM"><displayName>Diámetro normal (DN) del tronco en centímetros</displayName><value>182.5</value></Data><Data name="COPA_M"><displayName>Diámetro promedio de copa en metros</displayName><value>27.35</value></Data><Data name="EDAD_ANIO"><displayName>Edad estimada en años</displayName><value></value></Data><Data name="RIESGO"><displayName>Categoría de riesgo UICN de la especie</displayName><value>Preocupación menor (LC)</value></Data></ExtendedData><Point><coordinates>-99.170505,19.349388,0</coordinates></Point></Placemark>
<Placemark><name>Río Magdalena</name><description>Taxodium mucronatum</description><ExtendedData><Data name="ID"><displayName>Identificador en el registro</displayName><value>25-COY-TAX-19405GIMNO-0009</value></Data><Data name="CONSEC"><displayName>Consecutivo</displayName><value>0009</value></Data><Data name="NOMBRE"><displayName>Nombre asignado</displayName><value>Río Magdalena</value></Data><Data name="ESPECIE"><displayName>Especie</displayName><value>Taxodium mucronatum</value></Data><Data name="N_COMUN"><displayName>Nombre común</displayName><value>Ahuehuete</value></Data><Data name="CATEGORIA"><displayName>Categorías declaradas</displayName><value>NOTABLE</value></Data><Data name="F_DECRETO"><displayName>Fecha del decreto</displayName><value>2026-06-02</value></Data><Data name="ALCALDIA"><displayName>Alcaldía</displayName><value>Coyoacán</value></Data><Data name="COLONIA"><displayName>Colonia</displayName><value>Santa Catarina</value></Data><Data name="DOMICILIO"><displayName>Calle y número</displayName><value>Callejón del Río S/N</value></Data><Data name="TIPO_UBIC"><displayName>Tipo de ubicación</displayName><value>Camellón</value></Data><Data name="ALTURA_M"><displayName>Altura en metros</displayName><value>26.2</value></Data><Data name="DAP_CM"><displayName>Diámetro normal (DN) del tronco en centímetros</displayName><value>107.3</value></Data><Data name="COPA_M"><displayName>Diámetro promedio de copa en metros</displayName><value>12.9</value></Data><Data name="EDAD_ANIO"><displayName>Edad estimada en años</displayName><value></value></Data><Data name="RIESGO"><displayName>Categoría de riesgo UICN de la especie</displayName><value>Preocupación menor (LC)</value></Data></ExtendedData><Point><coordinates>-99.177512,19.351499,0</coordinates></Point></Placemark>
<Placemark><name>Glorieta de Ahuehuetes</name><description>Taxodium mucronatum</description><ExtendedData><Data name="ID"><displayName>Identificador en el registro</displayName><value>25-AZC-TAX-19405GIMNO-0010</value></Data><Data name="CONSEC"><displayName>Consecutivo</displayName><value>0010</value></Data><Data name="NOMBRE"><displayName>Nombre asignado</displayName><value>Glorieta de Ahuehuetes</value></Data><Data name="ESPECIE"><displayName>Especie</displayName><value>Taxodium mucronatum</value></Data><Data name="N_COMUN"><displayName>Nombre común</displayName><value>Ahuehuete</value></Data><Data name="CATEGORIA"><displayName>Categorías declaradas</displayName><value>NOTABLE</value></Data><Data name="F_DECRETO"><displayName>Fecha del decreto</displayName><value>2026-05-28</value></Data><Data name="ALCALDIA"><displayName>Alcaldía</displayName><value>Azcapotzalco</value></Data><Data name="COLONIA"><displayName>Colonia</displayName><value>San Juan Tihuaca</value></Data><Data name="DOMICILIO"><displayName>Calle y número</displayName><value>Glorieta de los Ahuehuetes S/N</value></Data><Data name="TIPO_UBIC"><displayName>Tipo de ubicación</displayName><value>Glorieta</value></Data><Data name="ALTURA_M"><displayName>Altura en metros</displayName><value>23.6</value></Data><Data name="DAP_CM"><displayName>Diámetro normal (DN) del tronco en centímetros</displayName><value>89.5</value></Data><Data name="COPA_M"><displayName>Diámetro promedio de copa en metros</displayName><value>14.3</value></Data><Data name="EDAD_ANIO"><displayName>Edad estimada en años</displayName><value></value></Data><Data name="RIESGO"><displayName>Categoría de riesgo UICN de la especie</displayName><value>Preocupación menor (LC)</value></Data></ExtendedData><Point><coordinates>-99.200791,19.488362,0</coordinates></Point></Placemark>
<Placemark><name>Juarista</name><description>Taxodium mucronatum</description><ExtendedData><Data name="ID"><displayName>Identificador en el registro</displayName><value>25-CUH-TAX-19405GIMNO-0011</value></Data><Data name="CONSEC"><displayName>Consecutivo</displayName><value>0011</value></Data><Data name="NOMBRE"><displayName>Nombre asignado</displayName><value>Juarista</value></Data><Data name="ESPECIE"><displayName>Especie</displayName><value>Taxodium mucronatum</value></Data><Data name="N_COMUN"><displayName>Nombre común</displayName><value>Ahuehuete</value></Data><Data name="CATEGORIA"><displayName>Categorías declaradas</displayName><value>NOTABLE</value></Data><Data name="F_DECRETO"><displayName>Fecha del decreto</displayName><value>2026-05-29</value></Data><Data name="ALCALDIA"><displayName>Alcaldía</displayName><value>Cuauhtémoc</value></Data><Data name="COLONIA"><displayName>Colonia</displayName><value>Tabacalera</value></Data><Data name="DOMICILIO"><displayName>Calle y número</displayName><value>Avenida Paseo de la Reforma S/N</value></Data><Data name="TIPO_UBIC"><displayName>Tipo de ubicación</displayName><value>Plaza</value></Data><Data name="ALTURA_M"><displayName>Altura en metros</displayName><value>24</value></Data><Data name="DAP_CM"><displayName>Diámetro normal (DN) del tronco en centímetros</displayName><value>111.4</value></Data><Data name="COPA_M"><displayName>Diámetro promedio de copa en metros</displayName><value>9.94</value></Data><Data name="EDAD_ANIO"><displayName>Edad estimada en años</displayName><value></value></Data><Data name="RIESGO"><displayName>Categoría de riesgo UICN de la especie</displayName><value>Preocupación menor (LC)</value></Data></ExtendedData><Point><coordinates>-99.158199,19.431763,0</coordinates></Point></Placemark>
<Placemark><name>Laureano</name><description>Ficus microcarpa</description><ExtendedData><Data name="ID"><displayName>Identificador en el registro</displayName><value>25-BJU-FIC-75040ANGIO-0012</value></Data><Data name="CONSEC"><displayName>Consecutivo</displayName><value>0012</value></Data><Data name="NOMBRE"><displayName>Nombre asignado</displayName><value>Laureano</value></Data><Data name="ESPECIE"><displayName>Especie</displayName><value>Ficus microcarpa</value></Data><Data name="N_COMUN"><displayName>Nombre común</displayName><value>Laurel de la India</value></Data><Data name="CATEGORIA"><displayName>Categorías declaradas</displayName><value>SINGULAR</value></Data><Data name="F_DECRETO"><displayName>Fecha del decreto</displayName><value>2025-08-04</value></Data><Data name="ALCALDIA"><displayName>Alcaldía</displayName><value>Benito Juárez</value></Data><Data name="COLONIA"><displayName>Colonia</displayName><value>Tlacoquemecatl del Valle</value></Data><Data name="DOMICILIO"><displayName>Calle y número</displayName><value>Miguel Laurent 48</value></Data><Data name="TIPO_UBIC"><displayName>Tipo de ubicación</displayName><value>Banqueta</value></Data><Data name="ALTURA_M"><displayName>Altura en metros</displayName><value>23</value></Data><Data name="DAP_CM"><displayName>Diámetro normal (DN) del tronco en centímetros</displayName><value>90</value></Data><Data name="COPA_M"><displayName>Diámetro promedio de copa en metros</displayName><value>20</value></Data><Data name="EDAD_ANIO"><displayName>Edad estimada en años</displayName><value>35</value></Data><Data name="RIESGO"><displayName>Categoría de riesgo UICN de la especie</displayName><value>Preocupación menor (LC)</value></Data></ExtendedData><Point><coordinates>-99.17546,19.37758,0</coordinates></Point></Placemark>
<Placemark><name>Eugenio</name><description>Fraxinus uhdei</description><ExtendedData><Data name="ID"><displayName>Identificador en el registro</displayName><value>24-BJU-FRA-30222ANGIO-0013</value></Data><Data name="CONSEC"><displayName>Consecutivo</displayName><value>0013</value></Data><Data name="NOMBRE"><displayName>Nombre asignado</displayName><value>Eugenio</value></Data><Data name="ESPECIE"><displayName>Especie</displayName><value>Fraxinus uhdei</value></Data><Data name="N_COMUN"><displayName>Nombre común</displayName><value>Fresno Mexicano</value></Data><Data name="CATEGORIA"><displayName>Categorías declaradas</displayName><value>NOTABLE</value></Data><Data name="F_DECRETO"><displayName>Fecha del decreto</displayName><value>2024-06-13</value></Data><Data name="ALCALDIA"><displayName>Alcaldía</displayName><value>Benito Juárez</value></Data><Data name="COLONIA"><displayName>Colonia</displayName><value>Del Valle</value></Data><Data name="DOMICILIO"><displayName>Calle y número</displayName><value>Cerrada de Eugenia 28</value></Data><Data name="TIPO_UBIC"><displayName>Tipo de ubicación</displayName><value>Predio privado</value></Data><Data name="ALTURA_M"><displayName>Altura en metros</displayName><value>30</value></Data><Data name="DAP_CM"><displayName>Diámetro normal (DN) del tronco en centímetros</displayName><value>122</value></Data><Data name="COPA_M"><displayName>Diámetro promedio de copa en metros</displayName><value>20.5</value></Data><Data name="EDAD_ANIO"><displayName>Edad estimada en años</displayName><value></value></Data><Data name="RIESGO"><displayName>Categoría de riesgo UICN de la especie</displayName><value>Preocupación menor (LC)</value></Data></ExtendedData><Point><coordinates>-99.16593,19.38827,0</coordinates></Point></Placemark>
<Placemark><name>Diamante Tepeximilpa</name><description>Quercus (Quercus) crassipes</description><ExtendedData><Data name="ID"><displayName>Identificador en el registro</displayName><value>26-TLP-QUE-14751ANGIO-0014</value></Data><Data name="CONSEC"><displayName>Consecutivo</displayName><value>0014</value></Data><Data name="NOMBRE"><displayName>Nombre asignado</displayName><value>Diamante Tepeximilpa</value></Data><Data name="ESPECIE"><displayName>Especie</displayName><value>Quercus (Quercus) crassipes</value></Data><Data name="N_COMUN"><displayName>Nombre común</displayName><value>Encino</value></Data><Data name="CATEGORIA"><displayName>Categorías declaradas</displayName><value>CENTENARIO; HISTORICO</value></Data><Data name="F_DECRETO"><displayName>Fecha del decreto</displayName><value>2026-09-28</value></Data><Data name="ALCALDIA"><displayName>Alcaldía</displayName><value>Tlalpan</value></Data><Data name="COLONIA"><displayName>Colonia</displayName><value>Diamante</value></Data><Data name="DOMICILIO"><displayName>Calle y número</displayName><value>Av. De las Torres S/N</value></Data><Data name="TIPO_UBIC"><displayName>Tipo de ubicación</displayName><value>Arriate</value></Data><Data name="ALTURA_M"><displayName>Altura en metros</displayName><value>14.6</value></Data><Data name="DAP_CM"><displayName>Diámetro normal (DN) del tronco en centímetros</displayName><value>184.2</value></Data><Data name="COPA_M"><displayName>Diámetro promedio de copa en metros</displayName><value>13.62</value></Data><Data name="EDAD_ANIO"><displayName>Edad estimada en años</displayName><value></value></Data><Data name="RIESGO"><displayName>Categoría de riesgo UICN de la especie</displayName><value>Preocupación menor (LC) (En IUCN Red List 2024-2 como Quercus crassipes.)</value></Data></ExtendedData><Point><coordinates>-99.193133,19.270541,0</coordinates></Point></Placemark>
<Placemark><name>Los Gemelos de San Álvaro</name><description>Taxodium mucronatum</description><ExtendedData><Data name="ID"><displayName>Identificador en el registro</displayName><value>26-AZC-TAX-19405GIMNO-0018</value></Data><Data name="CONSEC"><displayName>Consecutivo</displayName><value>0018</value></Data><Data name="NOMBRE"><displayName>Nombre asignado</displayName><value>Los Gemelos de San Álvaro</value></Data><Data name="ESPECIE"><displayName>Especie</displayName><value>Taxodium mucronatum</value></Data><Data name="N_COMUN"><displayName>Nombre común</displayName><value>Ahuehuete</value></Data><Data name="CATEGORIA"><displayName>Categorías declaradas</displayName><value>CENTENARIO; NOTABLE</value></Data><Data name="F_DECRETO"><displayName>Fecha del decreto</displayName><value>2026-09-28</value></Data><Data name="ALCALDIA"><displayName>Alcaldía</displayName><value>Azcapotzalco</value></Data><Data name="COLONIA"><displayName>Colonia</displayName><value>San Álvaro</value></Data><Data name="DOMICILIO"><displayName>Calle y número</displayName><value>Franklin 4</value></Data><Data name="TIPO_UBIC"><displayName>Tipo de ubicación</displayName><value>Banqueta</value></Data><Data name="ALTURA_M"><displayName>Altura en metros</displayName><value>24</value></Data><Data name="DAP_CM"><displayName>Diámetro normal (DN) del tronco en centímetros</displayName><value>149.8</value></Data><Data name="COPA_M"><displayName>Diámetro promedio de copa en metros</displayName><value>17.37</value></Data><Data name="EDAD_ANIO"><displayName>Edad estimada en años</displayName><value></value></Data><Data name="RIESGO"><displayName>Categoría de riesgo UICN de la especie</displayName><value>Preocupación menor (LC)</value></Data></ExtendedData><Point><coordinates>-99.180872,19.459573,0</coordinates></Point></Placemark>
<Placemark><name>Los Gemelos De San Álvaro</name><description>Taxodium mucronatum</description><ExtendedData><Data name="ID"><displayName>Identificador en el registro</displayName><value>26-AZC-TAX-19405GIMNO-0019</value></Data><Data name="CONSEC"><displayName>Consecutivo</displayName><value>0019</value></Data><Data name="NOMBRE"><displayName>Nombre asignado</displayName><value>Los Gemelos De San Álvaro</value></Data><Data name="ESPECIE"><displayName>Especie</displayName><value>Taxodium mucronatum</value></Data><Data name="N_COMUN"><displayName>Nombre común</displayName><value>Ahuehuete</value></Data><Data name="CATEGORIA"><displayName>Categorías declaradas</displayName><value>CENTENARIO; NOTABLE</value></Data><Data name="F_DECRETO"><displayName>Fecha del decreto</displayName><value>2026-09-28</value></Data><Data name="ALCALDIA"><displayName>Alcaldía</displayName><value>Azcapotzalco</value></Data><Data name="COLONIA"><displayName>Colonia</displayName><value>San Álvaro</value></Data><Data name="DOMICILIO"><displayName>Calle y número</displayName><value>Franklin 4</value></Data><Data name="TIPO_UBIC"><displayName>Tipo de ubicación</displayName><value>Banqueta</value></Data><Data name="ALTURA_M"><displayName>Altura en metros</displayName><value>24</value></Data><Data name="DAP_CM"><displayName>Diámetro normal (DN) del tronco en centímetros</displayName><value>136</value></Data><Data name="COPA_M"><displayName>Diámetro promedio de copa en metros</displayName><value>18.71</value></Data><Data name="EDAD_ANIO"><displayName>Edad estimada en años</displayName><value></value></Data><Data name="RIESGO"><displayName>Categoría de riesgo UICN de la especie</displayName><value>Preocupación menor (LC)</value></Data></ExtendedData><Point><coordinates>-99.180813,19.459657,0</coordinates></Point></Placemark>
<Placemark><name>Atlahuitl</name><description>Taxodium mucronatum</description><ExtendedData><Data name="ID"><displayName>Identificador en el registro</displayName><value>26-COY-TAX-19405GIMNO-0021</value></Data><Data name="CONSEC"><displayName>Consecutivo</displayName><value>0021</value></Data><Data name="NOMBRE"><displayName>Nombre asignado</displayName><value>Atlahuitl</value></Data><Data name="ESPECIE"><displayName>Especie</displayName><value>Taxodium mucronatum</value></Data><Data name="N_COMUN"><displayName>Nombre común</displayName><value>Ahuehuete</value></Data><Data name="CATEGORIA"><displayName>Categorías declaradas</displayName><value>CENTENARIO; NOTABLE</value></Data><Data name="F_DECRETO"><displayName>Fecha del decreto</displayName><value>2026-09-28</value></Data><Data name="ALCALDIA"><displayName>Alcaldía</displayName><value>Coyoacán</value></Data><Data name="COLONIA"><displayName>Colonia</displayName><value>Parque San Andrés</value></Data><Data name="DOMICILIO"><displayName>Calle y número</displayName><value>Escocia 62</value></Data><Data name="TIPO_UBIC"><displayName>Tipo de ubicación</displayName><value>Banqueta</value></Data><Data name="ALTURA_M"><displayName>Altura en metros</displayName><value>25.2</value></Data><Data name="DAP_CM"><displayName>Diámetro normal (DN) del tronco en centímetros</displayName><value>144.2</value></Data><Data name="COPA_M"><displayName>Diámetro promedio de copa en metros</displayName><value>18.12</value></Data><Data name="EDAD_ANIO"><displayName>Edad estimada en años</displayName><value></value></Data><Data name="RIESGO"><displayName>Categoría de riesgo UICN de la especie</displayName><value>Preocupación menor (LC)</value></Data></ExtendedData><Point><coordinates>-99.14739,19.348509,0</coordinates></Point></Placemark>
<Placemark><name>Ahuehuetlan</name><description>Taxodium mucronatum</description><ExtendedData><Data name="ID"><displayName>Identificador en el registro</displayName><value>26-BJU-TAX-19405GIMNO-0023</value></Data><Data name="CONSEC"><displayName>Consecutivo</displayName><value>0023</value></Data><Data name="NOMBRE"><displayName>Nombre asignado</displayName><value>Ahuehuetlan</value></Data><Data name="ESPECIE"><displayName>Especie</displayName><value>Taxodium mucronatum</value></Data><Data name="N_COMUN"><displayName>Nombre común</displayName><value>Ahuehuete</value></Data><Data name="CATEGORIA"><displayName>Categorías declaradas</displayName><value>CENTENARIO; HISTORICO; NOTABLE</value></Data><Data name="F_DECRETO"><displayName>Fecha del decreto</displayName><value>2026-09-28</value></Data><Data name="ALCALDIA"><displayName>Alcaldía</displayName><value>Benito Juárez</value></Data><Data name="COLONIA"><displayName>Colonia</displayName><value>Narvarte Oriente</value></Data><Data name="DOMICILIO"><displayName>Calle y número</displayName><value>Caleta S/N</value></Data><Data name="TIPO_UBIC"><displayName>Tipo de ubicación</displayName><value>Parque</value></Data><Data name="ALTURA_M"><displayName>Altura en metros</displayName><value>27.8</value></Data><Data name="DAP_CM"><displayName>Diámetro normal (DN) del tronco en centímetros</displayName><value>139.9</value></Data><Data name="COPA_M"><displayName>Diámetro promedio de copa en metros</displayName><value>17.93</value></Data><Data name="EDAD_ANIO"><displayName>Edad estimada en años</displayName><value></value></Data><Data name="RIESGO"><displayName>Categoría de riesgo UICN de la especie</displayName><value>Preocupación menor (LC)</value></Data></ExtendedData><Point><coordinates>-99.149214,19.400856,0</coordinates></Point></Placemark>
<Placemark><name>San Cristóbal Xallan</name><description>Taxodium mucronatum</description><ExtendedData><Data name="ID"><displayName>Identificador en el registro</displayName><value>26-XOC-TAX-19405GIMNO-0024</value></Data><Data name="CONSEC"><displayName>Consecutivo</displayName><value>0024</value></Data><Data name="NOMBRE"><displayName>Nombre asignado</displayName><value>San Cristóbal Xallan</value></Data><Data name="ESPECIE"><displayName>Especie</displayName><value>Taxodium mucronatum</value></Data><Data name="N_COMUN"><displayName>Nombre común</displayName><value>Ahuehuete</value></Data><Data name="CATEGORIA"><displayName>Categorías declaradas</displayName><value>CENTENARIO; NOTABLE</value></Data><Data name="F_DECRETO"><displayName>Fecha del decreto</displayName><value>2026-09-28</value></Data><Data name="ALCALDIA"><displayName>Alcaldía</displayName><value>Xochimilco</value></Data><Data name="COLONIA"><displayName>Colonia</displayName><value>San Cristóbal</value></Data><Data name="DOMICILIO"><displayName>Calle y número</displayName><value>Callejon Las Flores S/N</value></Data><Data name="TIPO_UBIC"><displayName>Tipo de ubicación</displayName><value>Plaza</value></Data><Data name="ALTURA_M"><displayName>Altura en metros</displayName><value>20.4</value></Data><Data name="DAP_CM"><displayName>Diámetro normal (DN) del tronco en centímetros</displayName><value>122.4</value></Data><Data name="COPA_M"><displayName>Diámetro promedio de copa en metros</displayName><value>14.02</value></Data><Data name="EDAD_ANIO"><displayName>Edad estimada en años</displayName><value></value></Data><Data name="RIESGO"><displayName>Categoría de riesgo UICN de la especie</displayName><value>Preocupación menor (LC)</value></Data></ExtendedData><Point><coordinates>-99.099054,19.260977,0</coordinates></Point></Placemark>
<Placemark><name>Molotla</name><description>Taxodium mucronatum</description><ExtendedData><Data name="ID"><displayName>Identificador en el registro</displayName><value>26-XOC-TAX-19405GIMNO-0025</value></Data><Data name="CONSEC"><displayName>Consecutivo</displayName><value>0025</value></Data><Data name="NOMBRE"><displayName>Nombre asignado</displayName><value>Molotla</value></Data><Data name="ESPECIE"><displayName>Especie</displayName><value>Taxodium mucronatum</value></Data><Data name="N_COMUN"><displayName>Nombre común</displayName><value>Ahuehuete</value></Data><Data name="CATEGORIA"><displayName>Categorías declaradas</displayName><value>HISTORICO; NOTABLE</value></Data><Data name="F_DECRETO"><displayName>Fecha del decreto</displayName><value>2026-09-28</value></Data><Data name="ALCALDIA"><displayName>Alcaldía</displayName><value>Xochimilco</value></Data><Data name="COLONIA"><displayName>Colonia</displayName><value>San Antonio</value></Data><Data name="DOMICILIO"><displayName>Calle y número</displayName><value>Francisco I. Madero S/N</value></Data><Data name="TIPO_UBIC"><displayName>Tipo de ubicación</displayName><value>Banqueta</value></Data><Data name="ALTURA_M"><displayName>Altura en metros</displayName><value>28.8</value></Data><Data name="DAP_CM"><displayName>Diámetro normal (DN) del tronco en centímetros</displayName><value>160</value></Data><Data name="COPA_M"><displayName>Diámetro promedio de copa en metros</displayName><value>15.86</value></Data><Data name="EDAD_ANIO"><displayName>Edad estimada en años</displayName><value></value></Data><Data name="RIESGO"><displayName>Categoría de riesgo UICN de la especie</displayName><value>Preocupación menor (LC)</value></Data></ExtendedData><Point><coordinates>-99.106944,19.262091,0</coordinates></Point></Placemark>
<Placemark><name>Cedro de Padierna</name><description>Cupressus lusitanica</description><ExtendedData><Data name="ID"><displayName>Identificador en el registro</displayName><value>26-MAC-CUP-19282GIMNO-0026</value></Data><Data name="CONSEC"><displayName>Consecutivo</displayName><value>0026</value></Data><Data name="NOMBRE"><displayName>Nombre asignado</displayName><value>Cedro de Padierna</value></Data><Data name="ESPECIE"><displayName>Especie</displayName><value>Cupressus lusitanica</value></Data><Data name="N_COMUN"><displayName>Nombre común</displayName><value>Cedro blanco</value></Data><Data name="CATEGORIA"><displayName>Categorías declaradas</displayName><value>CENTENARIO; NOTABLE</value></Data><Data name="F_DECRETO"><displayName>Fecha del decreto</displayName><value>2026-09-28</value></Data><Data name="ALCALDIA"><displayName>Alcaldía</displayName><value>La Magdalena Contreras</value></Data><Data name="COLONIA"><displayName>Colonia</displayName><value>Tierra Unida</value></Data><Data name="DOMICILIO"><displayName>Calle y número</displayName><value>Andador Principal Manzana 22, Lote 7</value></Data><Data name="TIPO_UBIC"><displayName>Tipo de ubicación</displayName><value>Banqueta</value></Data><Data name="ALTURA_M"><displayName>Altura en metros</displayName><value>28.2</value></Data><Data name="DAP_CM"><displayName>Diámetro normal (DN) del tronco en centímetros</displayName><value>227</value></Data><Data name="COPA_M"><displayName>Diámetro promedio de copa en metros</displayName><value>17.41</value></Data><Data name="EDAD_ANIO"><displayName>Edad estimada en años</displayName><value></value></Data><Data name="RIESGO"><displayName>Categoría de riesgo UICN de la especie</displayName><value>Preocupación menor (LC)</value></Data></ExtendedData><Point><coordinates>-99.269724,19.303763,0</coordinates></Point></Placemark>
<Placemark><name>Tlanahuac</name><description>Taxodium mucronatum</description><ExtendedData><Data name="ID"><displayName>Identificador en el registro</displayName><value>26-XOC-TAX-19405GIMNO-0027</value></Data><Data name="CONSEC"><displayName>Consecutivo</displayName><value>0027</value></Data><Data name="NOMBRE"><displayName>Nombre asignado</displayName><value>Tlanahuac</value></Data><Data name="ESPECIE"><displayName>Especie</displayName><value>Taxodium mucronatum</value></Data><Data name="N_COMUN"><displayName>Nombre común</displayName><value>Ahuehuete</value></Data><Data name="CATEGORIA"><displayName>Categorías declaradas</displayName><value>HISTORICO; NOTABLE</value></Data><Data name="F_DECRETO"><displayName>Fecha del decreto</displayName><value>2026-09-28</value></Data><Data name="ALCALDIA"><displayName>Alcaldía</displayName><value>Xochimilco</value></Data><Data name="COLONIA"><displayName>Colonia</displayName><value>San Pedro</value></Data><Data name="DOMICILIO"><displayName>Calle y número</displayName><value>Cuitláhuac 8</value></Data><Data name="TIPO_UBIC"><displayName>Tipo de ubicación</displayName><value>Banqueta</value></Data><Data name="ALTURA_M"><displayName>Altura en metros</displayName><value>17.65</value></Data><Data name="DAP_CM"><displayName>Diámetro normal (DN) del tronco en centímetros</displayName><value>130.2</value></Data><Data name="COPA_M"><displayName>Diámetro promedio de copa en metros</displayName><value>17.65</value></Data><Data name="EDAD_ANIO"><displayName>Edad estimada en años</displayName><value></value></Data><Data name="RIESGO"><displayName>Categoría de riesgo UICN de la especie</displayName><value>Preocupación menor (LC)</value></Data></ExtendedData><Point><coordinates>-99.106517,19.257793,0</coordinates></Point></Placemark>
<Placemark><name>Teuhtli</name><description>Olea europaea</description><ExtendedData><Data name="ID"><displayName>Identificador en el registro</displayName><value>26-XOC-OLE-57117ANGIO-0028</value></Data><Data name="CONSEC"><displayName>Consecutivo</displayName><value>0028</value></Data><Data name="NOMBRE"><displayName>Nombre asignado</displayName><value>Teuhtli</value></Data><Data name="ESPECIE"><displayName>Especie</displayName><value>Olea europaea</value></Data><Data name="N_COMUN"><displayName>Nombre común</displayName><value>Olivo</value></Data><Data name="CATEGORIA"><displayName>Categorías declaradas</displayName><value>CENTENARIO; HISTORICO; NOTABLE</value></Data><Data name="F_DECRETO"><displayName>Fecha del decreto</displayName><value>2026-09-28</value></Data><Data name="ALCALDIA"><displayName>Alcaldía</displayName><value>Xochimilco</value></Data><Data name="COLONIA"><displayName>Colonia</displayName><value>Guadalupita</value></Data><Data name="DOMICILIO"><displayName>Calle y número</displayName><value>Las Ánimas S/N</value></Data><Data name="TIPO_UBIC"><displayName>Tipo de ubicación</displayName><value>Banqueta</value></Data><Data name="ALTURA_M"><displayName>Altura en metros</displayName><value>9.5</value></Data><Data name="DAP_CM"><displayName>Diámetro normal (DN) del tronco en centímetros</displayName><value>30.7</value></Data><Data name="COPA_M"><displayName>Diámetro promedio de copa en metros</displayName><value>8.79</value></Data><Data name="EDAD_ANIO"><displayName>Edad estimada en años</displayName><value></value></Data><Data name="RIESGO"><displayName>Categoría de riesgo UICN de la especie</displayName><value></value></Data></ExtendedData><Point><coordinates>-99.016689,19.255517,0</coordinates></Point></Placemark>
</Document></kml>
