<?xml version="1.0" encoding="UTF-8"?>
<kml xmlns="http://www.opengis.net/kml/2.2"><Document>
<name>Perímetro de la Ciudad de México</name>
<description>Clave geoestadística 09. Fuente: INEGI, Marco Geoestadístico. Geometría simplificada a 20 metros de tolerancia.</description>
<Placemark><name>Ciudad de México</name>
<ExtendedData><Data name="CVEGEO"><value>09</value></Data><Data name="NOMGEO"><value>Ciudad de México</value></Data></ExtendedData>
<Polygon><tessellate>1</tessellate><outerBoundaryIs><LinearRing><coordinates>-99.1081,19.56489,0 -99.11572,19.55666,0 -99.11562,19.55404,0 -99.11848,19.55219,0 -99.12104,19.54913,0 -99.12273,19.54544,0 -99.12815,19.53939,0 -99.13057,19.53609,0 -99.12737,19.53508,0 -99.12738,19.53171,0 -99.12818,19.52588,0 -99.128,19.52453,0 -99.12738,19.52407,0 -99.12528,19.5205,0 -99.12101,19.51629,0 -99.11688,19.51324,0 -99.11593,19.51305,0 -99.11441,19.51106,0 -99.11059,19.51117,0 -99.10943,19.51031,0 -99.10897,19.51111,0 -99.10865,19.51049,0 -99.10784,19.51046,0 -99.10764,19.51103,0 -99.1073,19.50969,0 -99.10674,19.51045,0 -99.10593,19.50989,0 -99.10552,19.51033,0 -99.10343,19.51129,0 -99.0974,19.51263,0 -99.07722,19.50388,0 -99.06386,19.49878,0 -99.06799,19.48908,0 -99.06485,19.48184,0 -99.06328,19.48127,0 -99.06361,19.47997,0 -99.063,19.47982,0 -99.06336,19.47861,0 -99.05112,19.45064,0 -99.04714,19.44313,0 -99.04646,19.44236,0 -99.04821,19.43964,0 -99.0552,19.42427,0 -99.05584,19.42196,0 -99.0564,19.41751,0 -99.05814,19.40069,0 -99.01957,19.38326,0 -99.01016,19.37833,0 -98.99194,19.3676,0 -98.99176,19.367,0 -98.99347,19.36038,0 -98.99445,19.35885,0 -98.99456,19.35814,0 -98.97879,19.34329,0 -98.97548,19.33833,0 -98.97433,19.33703,0 -98.9579,19.32323,0 -98.96297,19.31673,0 -98.96439,19.30793,0 -98.96478,19.30688,0 -98.96628,19.30596,0 -98.96722,19.30597,0 -98.97143,19.27837,0 -98.97492,19.25949,0 -98.97653,19.25313,0 -98.96599,19.24994,0 -98.96859,19.23222,0 -98.9403,19.22324,0 -98.94255,19.21561,0 -98.95109,19.21818,0 -98.95239,19.21625,0 -98.95328,19.2155,0 -98.95289,19.21527,0 -98.95367,19.21544,0 -98.95395,19.21465,0 -98.95746,19.21514,0 -98.96003,19.21441,0 -98.95974,19.21387,0 -98.96269,19.21414,0 -98.96354,19.21304,0 -98.96431,19.21324,0 -98.96716,19.21165,0 -98.96783,19.21071,0 -98.96853,19.21057,0 -98.96683,19.20896,0 -98.96705,19.20763,0 -98.96742,19.20733,0 -98.96718,19.20704,0 -98.96723,19.20625,0 -98.96968,19.20425,0 -98.9677,19.20313,0 -98.96703,19.19991,0 -98.96769,19.18974,0 -98.96641,19.18703,0 -98.95985,19.17917,0 -98.95652,19.17664,0 -98.95617,19.17676,0 -98.95239,19.16864,0 -98.96737,19.16444,0 -98.95463,19.14952,0 -98.96646,19.14387,0 -98.96511,19.14041,0 -98.96109,19.13303,0 -98.95751,19.12238,0 -98.95766,19.11963,0 -98.9587,19.11364,0 -98.95841,19.11131,0 -98.95896,19.10904,0 -98.95906,19.10428,0 -98.96124,19.09558,0 -98.96327,19.09206,0 -98.96572,19.08586,0 -98.96828,19.08314,0 -98.9737,19.07955,0 -98.979,19.07446,0 -98.98359,19.07876,0 -99.02899,19.08537,0 -99.04321,19.07576,0 -99.0598,19.04824,0 -99.10692,19.07283,0 -99.13538,19.0893,0 -99.22678,19.09606,0 -99.2787,19.1317,0 -99.28761,19.1466,0 -99.2956,19.17288,0 -99.30018,19.18458,0 -99.30133,19.18842,0 -99.30276,19.19086,0 -99.30469,19.20265,0 -99.30613,19.20614,0 -99.30714,19.21373,0 -99.31625,19.2215,0 -99.31534,19.2292,0 -99.3213,19.23267,0 -99.32672,19.23257,0 -99.33082,19.23794,0 -99.34234,19.24112,0 -99.34207,19.24754,0 -99.33986,19.25965,0 -99.33763,19.26404,0 -99.33916,19.2677,0 -99.34094,19.2678,0 -99.34306,19.26855,0 -99.34469,19.26948,0 -99.34585,19.27081,0 -99.3463,19.27202,0 -99.34821,19.27396,0 -99.36192,19.27574,0 -99.36492,19.27777,0 -99.35358,19.29193,0 -99.35454,19.29329,0 -99.35347,19.29338,0 -99.35241,19.29399,0 -99.35149,19.29415,0 -99.35126,19.29497,0 -99.35292,19.29605,0 -99.3535,19.2974,0 -99.34999,19.29684,0 -99.35627,19.30201,0 -99.35661,19.30668,0 -99.33384,19.33059,0 -99.33231,19.33352,0 -99.33115,19.33978,0 -99.33067,19.34006,0 -99.33033,19.34099,0 -99.32973,19.34162,0 -99.32827,19.3452,0 -99.32888,19.34562,0 -99.32845,19.34682,0 -99.3287,19.3479,0 -99.32833,19.34949,0 -99.32885,19.35036,0 -99.32865,19.35138,0 -99.32882,19.3521,0 -99.32848,19.35309,0 -99.32743,19.35413,0 -99.32639,19.35367,0 -99.32376,19.35795,0 -99.32329,19.35834,0 -99.32222,19.35866,0 -99.32011,19.35772,0 -99.31915,19.35763,0 -99.31813,19.35816,0 -99.3207,19.36044,0 -99.31954,19.36362,0 -99.31812,19.36416,0 -99.31761,19.36573,0 -99.31686,19.36631,0 -99.31539,19.36589,0 -99.31309,19.37045,0 -99.31071,19.37041,0 -99.30928,19.37158,0 -99.30776,19.37156,0 -99.30613,19.3736,0 -99.30501,19.37683,0 -99.30348,19.37783,0 -99.30131,19.37708,0 -99.30194,19.37576,0 -99.30096,19.37177,0 -99.30089,19.37062,0 -99.30123,19.3697,0 -99.29902,19.36752,0 -99.29844,19.36888,0 -99.29792,19.36932,0 -99.29559,19.36908,0 -99.29477,19.36986,0 -99.29389,19.37015,0 -99.29323,19.37192,0 -99.29206,19.37328,0 -99.29118,19.37349,0 -99.29061,19.37502,0 -99.28864,19.37511,0 -99.28767,19.37668,0 -99.2857,19.37644,0 -99.28567,19.37763,0 -99.28507,19.378,0 -99.28504,19.37905,0 -99.28446,19.37976,0 -99.28381,19.37967,0 -99.28283,19.3814,0 -99.28177,19.38148,0 -99.28004,19.38227,0 -99.27604,19.38558,0 -99.27607,19.38519,0 -99.27369,19.38704,0 -99.27321,19.38759,0 -99.27278,19.38938,0 -99.27243,19.38968,0 -99.26957,19.39038,0 -99.26948,19.39136,0 -99.26816,19.39245,0 -99.2671,19.39207,0 -99.26599,19.39274,0 -99.266,19.3932,0 -99.26511,19.39319,0 -99.2651,19.39373,0 -99.26172,19.39599,0 -99.26127,19.3974,0 -99.26146,19.3985,0 -99.26114,19.39965,0 -99.25907,19.40146,0 -99.25923,19.40177,0 -99.25883,19.40375,0 -99.25813,19.40476,0 -99.2577,19.40485,0 -99.25823,19.40253,0 -99.25698,19.40043,0 -99.25601,19.40254,0 -99.25604,19.40356,0 -99.25435,19.40486,0 -99.25334,19.40509,0 -99.25284,19.40574,0 -99.25094,19.40642,0 -99.24831,19.40865,0 -99.24423,19.40994,0 -99.2437,19.41053,0 -99.24083,19.41192,0 -99.23991,19.41219,0 -99.2384,19.41201,0 -99.2373,19.41236,0 -99.23545,19.41544,0 -99.23463,19.41597,0 -99.23425,19.41669,0 -99.23361,19.41658,0 -99.23297,19.4194,0 -99.23247,19.41942,0 -99.23236,19.41979,0 -99.23182,19.41999,0 -99.23084,19.42171,0 -99.22938,19.4222,0 -99.22846,19.42342,0 -99.22788,19.4236,0 -99.22773,19.42418,0 -99.22702,19.42432,0 -99.22546,19.42659,0 -99.22447,19.42708,0 -99.2228,19.42637,0 -99.22227,19.42702,0 -99.22338,19.42951,0 -99.22682,19.43134,0 -99.22617,19.43397,0 -99.22743,19.43494,0 -99.22728,19.43587,0 -99.22816,19.43605,0 -99.2287,19.43671,0 -99.22854,19.43681,0 -99.22963,19.43737,0 -99.22058,19.44368,0 -99.21813,19.44411,0 -99.21954,19.44502,0 -99.22015,19.44612,0 -99.21997,19.45288,0 -99.21852,19.45305,0 -99.21736,19.45367,0 -99.21529,19.45622,0 -99.21425,19.45856,0 -99.21394,19.46041,0 -99.21263,19.46245,0 -99.21354,19.46292,0 -99.21215,19.46711,0 -99.21173,19.46714,0 -99.21154,19.46799,0 -99.20886,19.47008,0 -99.20717,19.46957,0 -99.20682,19.47122,0 -99.22112,19.47507,0 -99.21966,19.48031,0 -99.2135,19.49828,0 -99.21199,19.50351,0 -99.21105,19.50844,0 -99.21016,19.51114,0 -99.20926,19.51241,0 -99.20467,19.51514,0 -99.1919,19.51127,0 -99.1915,19.51058,0 -99.18843,19.50995,0 -99.18229,19.50747,0 -99.17705,19.50619,0 -99.17554,19.50746,0 -99.17304,19.50859,0 -99.16708,19.50609,0 -99.15718,19.50285,0 -99.16298,19.51796,0 -99.16996,19.52206,0 -99.17418,19.52347,0 -99.17463,19.52407,0 -99.17137,19.52719,0 -99.17536,19.53009,0 -99.17615,19.52887,0 -99.17705,19.52933,0 -99.17628,19.53064,0 -99.17601,19.53204,0 -99.17495,19.53188,0 -99.16767,19.52925,0 -99.15916,19.5269,0 -99.1568,19.52809,0 -99.1586,19.52886,0 -99.15585,19.53244,0 -99.15851,19.53392,0 -99.15804,19.53529,0 -99.15411,19.54008,0 -99.15108,19.54485,0 -99.15865,19.54832,0 -99.15853,19.54882,0 -99.15938,19.54898,0 -99.15921,19.5492,0 -99.1609,19.54926,0 -99.15809,19.55369,0 -99.15757,19.55505,0 -99.1581,19.55735,0 -99.15614,19.56015,0 -99.15424,19.56138,0 -99.15281,19.56196,0 -99.15162,19.56138,0 -99.1509,19.56052,0 -99.14919,19.56201,0 -99.146,19.5659,0 -99.14581,19.56875,0 -99.14476,19.57083,0 -99.14367,19.57218,0 -99.13957,19.5754,0 -99.13914,19.57847,0 -99.1379,19.58113,0 -99.13376,19.58489,0 -99.13376,19.58624,0 -99.12699,19.58851,0 -99.12371,19.59276,0 -99.11946,19.59199,0 -99.11789,19.59059,0 -99.1186,19.58446,0 -99.11691,19.58144,0 -99.11466,19.5798,0 -99.11182,19.56873,0 -99.1081,19.56489,0</coordinates></LinearRing></outerBoundaryIs></Polygon>
</Placemark>
</Document></kml>
