{
 "type": "FeatureCollection",
 "name": "perimetro-cdmx",
 "crs": {
  "type": "name",
  "properties": {
   "name": "urn:ogc:def:crs:OGC:1.3:CRS84"
  }
 },
 "features": [
  {
   "type": "Feature",
   "properties": {
    "CVEGEO": "09",
    "NOMGEO": "Ciudad de México",
    "FUENTE": "INEGI, Marco Geoestadístico",
    "TOLERANCIA_M": 20
   },
   "geometry": {
    "type": "Polygon",
    "coordinates": [
     [
      [
       -99.1081,
       19.56489
      ],
      [
       -99.11572,
       19.55666
      ],
      [
       -99.11562,
       19.55404
      ],
      [
       -99.11848,
       19.55219
      ],
      [
       -99.12104,
       19.54913
      ],
      [
       -99.12273,
       19.54544
      ],
      [
       -99.12815,
       19.53939
      ],
      [
       -99.13057,
       19.53609
      ],
      [
       -99.12737,
       19.53508
      ],
      [
       -99.12738,
       19.53171
      ],
      [
       -99.12818,
       19.52588
      ],
      [
       -99.128,
       19.52453
      ],
      [
       -99.12738,
       19.52407
      ],
      [
       -99.12528,
       19.5205
      ],
      [
       -99.12101,
       19.51629
      ],
      [
       -99.11688,
       19.51324
      ],
      [
       -99.11593,
       19.51305
      ],
      [
       -99.11441,
       19.51106
      ],
      [
       -99.11059,
       19.51117
      ],
      [
       -99.10943,
       19.51031
      ],
      [
       -99.10897,
       19.51111
      ],
      [
       -99.10865,
       19.51049
      ],
      [
       -99.10784,
       19.51046
      ],
      [
       -99.10764,
       19.51103
      ],
      [
       -99.1073,
       19.50969
      ],
      [
       -99.10674,
       19.51045
      ],
      [
       -99.10593,
       19.50989
      ],
      [
       -99.10552,
       19.51033
      ],
      [
       -99.10343,
       19.51129
      ],
      [
       -99.0974,
       19.51263
      ],
      [
       -99.07722,
       19.50388
      ],
      [
       -99.06386,
       19.49878
      ],
      [
       -99.06799,
       19.48908
      ],
      [
       -99.06485,
       19.48184
      ],
      [
       -99.06328,
       19.48127
      ],
      [
       -99.06361,
       19.47997
      ],
      [
       -99.063,
       19.47982
      ],
      [
       -99.06336,
       19.47861
      ],
      [
       -99.05112,
       19.45064
      ],
      [
       -99.04714,
       19.44313
      ],
      [
       -99.04646,
       19.44236
      ],
      [
       -99.04821,
       19.43964
      ],
      [
       -99.0552,
       19.42427
      ],
      [
       -99.05584,
       19.42196
      ],
      [
       -99.0564,
       19.41751
      ],
      [
       -99.05814,
       19.40069
      ],
      [
       -99.01957,
       19.38326
      ],
      [
       -99.01016,
       19.37833
      ],
      [
       -98.99194,
       19.3676
      ],
      [
       -98.99176,
       19.367
      ],
      [
       -98.99347,
       19.36038
      ],
      [
       -98.99445,
       19.35885
      ],
      [
       -98.99456,
       19.35814
      ],
      [
       -98.97879,
       19.34329
      ],
      [
       -98.97548,
       19.33833
      ],
      [
       -98.97433,
       19.33703
      ],
      [
       -98.9579,
       19.32323
      ],
      [
       -98.96297,
       19.31673
      ],
      [
       -98.96439,
       19.30793
      ],
      [
       -98.96478,
       19.30688
      ],
      [
       -98.96628,
       19.30596
      ],
      [
       -98.96722,
       19.30597
      ],
      [
       -98.97143,
       19.27837
      ],
      [
       -98.97492,
       19.25949
      ],
      [
       -98.97653,
       19.25313
      ],
      [
       -98.96599,
       19.24994
      ],
      [
       -98.96859,
       19.23222
      ],
      [
       -98.9403,
       19.22324
      ],
      [
       -98.94255,
       19.21561
      ],
      [
       -98.95109,
       19.21818
      ],
      [
       -98.95239,
       19.21625
      ],
      [
       -98.95328,
       19.2155
      ],
      [
       -98.95289,
       19.21527
      ],
      [
       -98.95367,
       19.21544
      ],
      [
       -98.95395,
       19.21465
      ],
      [
       -98.95746,
       19.21514
      ],
      [
       -98.96003,
       19.21441
      ],
      [
       -98.95974,
       19.21387
      ],
      [
       -98.96269,
       19.21414
      ],
      [
       -98.96354,
       19.21304
      ],
      [
       -98.96431,
       19.21324
      ],
      [
       -98.96716,
       19.21165
      ],
      [
       -98.96783,
       19.21071
      ],
      [
       -98.96853,
       19.21057
      ],
      [
       -98.96683,
       19.20896
      ],
      [
       -98.96705,
       19.20763
      ],
      [
       -98.96742,
       19.20733
      ],
      [
       -98.96718,
       19.20704
      ],
      [
       -98.96723,
       19.20625
      ],
      [
       -98.96968,
       19.20425
      ],
      [
       -98.9677,
       19.20313
      ],
      [
       -98.96703,
       19.19991
      ],
      [
       -98.96769,
       19.18974
      ],
      [
       -98.96641,
       19.18703
      ],
      [
       -98.95985,
       19.17917
      ],
      [
       -98.95652,
       19.17664
      ],
      [
       -98.95617,
       19.17676
      ],
      [
       -98.95239,
       19.16864
      ],
      [
       -98.96737,
       19.16444
      ],
      [
       -98.95463,
       19.14952
      ],
      [
       -98.96646,
       19.14387
      ],
      [
       -98.96511,
       19.14041
      ],
      [
       -98.96109,
       19.13303
      ],
      [
       -98.95751,
       19.12238
      ],
      [
       -98.95766,
       19.11963
      ],
      [
       -98.9587,
       19.11364
      ],
      [
       -98.95841,
       19.11131
      ],
      [
       -98.95896,
       19.10904
      ],
      [
       -98.95906,
       19.10428
      ],
      [
       -98.96124,
       19.09558
      ],
      [
       -98.96327,
       19.09206
      ],
      [
       -98.96572,
       19.08586
      ],
      [
       -98.96828,
       19.08314
      ],
      [
       -98.9737,
       19.07955
      ],
      [
       -98.979,
       19.07446
      ],
      [
       -98.98359,
       19.07876
      ],
      [
       -99.02899,
       19.08537
      ],
      [
       -99.04321,
       19.07576
      ],
      [
       -99.0598,
       19.04824
      ],
      [
       -99.10692,
       19.07283
      ],
      [
       -99.13538,
       19.0893
      ],
      [
       -99.22678,
       19.09606
      ],
      [
       -99.2787,
       19.1317
      ],
      [
       -99.28761,
       19.1466
      ],
      [
       -99.2956,
       19.17288
      ],
      [
       -99.30018,
       19.18458
      ],
      [
       -99.30133,
       19.18842
      ],
      [
       -99.30276,
       19.19086
      ],
      [
       -99.30469,
       19.20265
      ],
      [
       -99.30613,
       19.20614
      ],
      [
       -99.30714,
       19.21373
      ],
      [
       -99.31625,
       19.2215
      ],
      [
       -99.31534,
       19.2292
      ],
      [
       -99.3213,
       19.23267
      ],
      [
       -99.32672,
       19.23257
      ],
      [
       -99.33082,
       19.23794
      ],
      [
       -99.34234,
       19.24112
      ],
      [
       -99.34207,
       19.24754
      ],
      [
       -99.33986,
       19.25965
      ],
      [
       -99.33763,
       19.26404
      ],
      [
       -99.33916,
       19.2677
      ],
      [
       -99.34094,
       19.2678
      ],
      [
       -99.34306,
       19.26855
      ],
      [
       -99.34469,
       19.26948
      ],
      [
       -99.34585,
       19.27081
      ],
      [
       -99.3463,
       19.27202
      ],
      [
       -99.34821,
       19.27396
      ],
      [
       -99.36192,
       19.27574
      ],
      [
       -99.36492,
       19.27777
      ],
      [
       -99.35358,
       19.29193
      ],
      [
       -99.35454,
       19.29329
      ],
      [
       -99.35347,
       19.29338
      ],
      [
       -99.35241,
       19.29399
      ],
      [
       -99.35149,
       19.29415
      ],
      [
       -99.35126,
       19.29497
      ],
      [
       -99.35292,
       19.29605
      ],
      [
       -99.3535,
       19.2974
      ],
      [
       -99.34999,
       19.29684
      ],
      [
       -99.35627,
       19.30201
      ],
      [
       -99.35661,
       19.30668
      ],
      [
       -99.33384,
       19.33059
      ],
      [
       -99.33231,
       19.33352
      ],
      [
       -99.33115,
       19.33978
      ],
      [
       -99.33067,
       19.34006
      ],
      [
       -99.33033,
       19.34099
      ],
      [
       -99.32973,
       19.34162
      ],
      [
       -99.32827,
       19.3452
      ],
      [
       -99.32888,
       19.34562
      ],
      [
       -99.32845,
       19.34682
      ],
      [
       -99.3287,
       19.3479
      ],
      [
       -99.32833,
       19.34949
      ],
      [
       -99.32885,
       19.35036
      ],
      [
       -99.32865,
       19.35138
      ],
      [
       -99.32882,
       19.3521
      ],
      [
       -99.32848,
       19.35309
      ],
      [
       -99.32743,
       19.35413
      ],
      [
       -99.32639,
       19.35367
      ],
      [
       -99.32376,
       19.35795
      ],
      [
       -99.32329,
       19.35834
      ],
      [
       -99.32222,
       19.35866
      ],
      [
       -99.32011,
       19.35772
      ],
      [
       -99.31915,
       19.35763
      ],
      [
       -99.31813,
       19.35816
      ],
      [
       -99.3207,
       19.36044
      ],
      [
       -99.31954,
       19.36362
      ],
      [
       -99.31812,
       19.36416
      ],
      [
       -99.31761,
       19.36573
      ],
      [
       -99.31686,
       19.36631
      ],
      [
       -99.31539,
       19.36589
      ],
      [
       -99.31309,
       19.37045
      ],
      [
       -99.31071,
       19.37041
      ],
      [
       -99.30928,
       19.37158
      ],
      [
       -99.30776,
       19.37156
      ],
      [
       -99.30613,
       19.3736
      ],
      [
       -99.30501,
       19.37683
      ],
      [
       -99.30348,
       19.37783
      ],
      [
       -99.30131,
       19.37708
      ],
      [
       -99.30194,
       19.37576
      ],
      [
       -99.30096,
       19.37177
      ],
      [
       -99.30089,
       19.37062
      ],
      [
       -99.30123,
       19.3697
      ],
      [
       -99.29902,
       19.36752
      ],
      [
       -99.29844,
       19.36888
      ],
      [
       -99.29792,
       19.36932
      ],
      [
       -99.29559,
       19.36908
      ],
      [
       -99.29477,
       19.36986
      ],
      [
       -99.29389,
       19.37015
      ],
      [
       -99.29323,
       19.37192
      ],
      [
       -99.29206,
       19.37328
      ],
      [
       -99.29118,
       19.37349
      ],
      [
       -99.29061,
       19.37502
      ],
      [
       -99.28864,
       19.37511
      ],
      [
       -99.28767,
       19.37668
      ],
      [
       -99.2857,
       19.37644
      ],
      [
       -99.28567,
       19.37763
      ],
      [
       -99.28507,
       19.378
      ],
      [
       -99.28504,
       19.37905
      ],
      [
       -99.28446,
       19.37976
      ],
      [
       -99.28381,
       19.37967
      ],
      [
       -99.28283,
       19.3814
      ],
      [
       -99.28177,
       19.38148
      ],
      [
       -99.28004,
       19.38227
      ],
      [
       -99.27604,
       19.38558
      ],
      [
       -99.27607,
       19.38519
      ],
      [
       -99.27369,
       19.38704
      ],
      [
       -99.27321,
       19.38759
      ],
      [
       -99.27278,
       19.38938
      ],
      [
       -99.27243,
       19.38968
      ],
      [
       -99.26957,
       19.39038
      ],
      [
       -99.26948,
       19.39136
      ],
      [
       -99.26816,
       19.39245
      ],
      [
       -99.2671,
       19.39207
      ],
      [
       -99.26599,
       19.39274
      ],
      [
       -99.266,
       19.3932
      ],
      [
       -99.26511,
       19.39319
      ],
      [
       -99.2651,
       19.39373
      ],
      [
       -99.26172,
       19.39599
      ],
      [
       -99.26127,
       19.3974
      ],
      [
       -99.26146,
       19.3985
      ],
      [
       -99.26114,
       19.39965
      ],
      [
       -99.25907,
       19.40146
      ],
      [
       -99.25923,
       19.40177
      ],
      [
       -99.25883,
       19.40375
      ],
      [
       -99.25813,
       19.40476
      ],
      [
       -99.2577,
       19.40485
      ],
      [
       -99.25823,
       19.40253
      ],
      [
       -99.25698,
       19.40043
      ],
      [
       -99.25601,
       19.40254
      ],
      [
       -99.25604,
       19.40356
      ],
      [
       -99.25435,
       19.40486
      ],
      [
       -99.25334,
       19.40509
      ],
      [
       -99.25284,
       19.40574
      ],
      [
       -99.25094,
       19.40642
      ],
      [
       -99.24831,
       19.40865
      ],
      [
       -99.24423,
       19.40994
      ],
      [
       -99.2437,
       19.41053
      ],
      [
       -99.24083,
       19.41192
      ],
      [
       -99.23991,
       19.41219
      ],
      [
       -99.2384,
       19.41201
      ],
      [
       -99.2373,
       19.41236
      ],
      [
       -99.23545,
       19.41544
      ],
      [
       -99.23463,
       19.41597
      ],
      [
       -99.23425,
       19.41669
      ],
      [
       -99.23361,
       19.41658
      ],
      [
       -99.23297,
       19.4194
      ],
      [
       -99.23247,
       19.41942
      ],
      [
       -99.23236,
       19.41979
      ],
      [
       -99.23182,
       19.41999
      ],
      [
       -99.23084,
       19.42171
      ],
      [
       -99.22938,
       19.4222
      ],
      [
       -99.22846,
       19.42342
      ],
      [
       -99.22788,
       19.4236
      ],
      [
       -99.22773,
       19.42418
      ],
      [
       -99.22702,
       19.42432
      ],
      [
       -99.22546,
       19.42659
      ],
      [
       -99.22447,
       19.42708
      ],
      [
       -99.2228,
       19.42637
      ],
      [
       -99.22227,
       19.42702
      ],
      [
       -99.22338,
       19.42951
      ],
      [
       -99.22682,
       19.43134
      ],
      [
       -99.22617,
       19.43397
      ],
      [
       -99.22743,
       19.43494
      ],
      [
       -99.22728,
       19.43587
      ],
      [
       -99.22816,
       19.43605
      ],
      [
       -99.2287,
       19.43671
      ],
      [
       -99.22854,
       19.43681
      ],
      [
       -99.22963,
       19.43737
      ],
      [
       -99.22058,
       19.44368
      ],
      [
       -99.21813,
       19.44411
      ],
      [
       -99.21954,
       19.44502
      ],
      [
       -99.22015,
       19.44612
      ],
      [
       -99.21997,
       19.45288
      ],
      [
       -99.21852,
       19.45305
      ],
      [
       -99.21736,
       19.45367
      ],
      [
       -99.21529,
       19.45622
      ],
      [
       -99.21425,
       19.45856
      ],
      [
       -99.21394,
       19.46041
      ],
      [
       -99.21263,
       19.46245
      ],
      [
       -99.21354,
       19.46292
      ],
      [
       -99.21215,
       19.46711
      ],
      [
       -99.21173,
       19.46714
      ],
      [
       -99.21154,
       19.46799
      ],
      [
       -99.20886,
       19.47008
      ],
      [
       -99.20717,
       19.46957
      ],
      [
       -99.20682,
       19.47122
      ],
      [
       -99.22112,
       19.47507
      ],
      [
       -99.21966,
       19.48031
      ],
      [
       -99.2135,
       19.49828
      ],
      [
       -99.21199,
       19.50351
      ],
      [
       -99.21105,
       19.50844
      ],
      [
       -99.21016,
       19.51114
      ],
      [
       -99.20926,
       19.51241
      ],
      [
       -99.20467,
       19.51514
      ],
      [
       -99.1919,
       19.51127
      ],
      [
       -99.1915,
       19.51058
      ],
      [
       -99.18843,
       19.50995
      ],
      [
       -99.18229,
       19.50747
      ],
      [
       -99.17705,
       19.50619
      ],
      [
       -99.17554,
       19.50746
      ],
      [
       -99.17304,
       19.50859
      ],
      [
       -99.16708,
       19.50609
      ],
      [
       -99.15718,
       19.50285
      ],
      [
       -99.16298,
       19.51796
      ],
      [
       -99.16996,
       19.52206
      ],
      [
       -99.17418,
       19.52347
      ],
      [
       -99.17463,
       19.52407
      ],
      [
       -99.17137,
       19.52719
      ],
      [
       -99.17536,
       19.53009
      ],
      [
       -99.17615,
       19.52887
      ],
      [
       -99.17705,
       19.52933
      ],
      [
       -99.17628,
       19.53064
      ],
      [
       -99.17601,
       19.53204
      ],
      [
       -99.17495,
       19.53188
      ],
      [
       -99.16767,
       19.52925
      ],
      [
       -99.15916,
       19.5269
      ],
      [
       -99.1568,
       19.52809
      ],
      [
       -99.1586,
       19.52886
      ],
      [
       -99.15585,
       19.53244
      ],
      [
       -99.15851,
       19.53392
      ],
      [
       -99.15804,
       19.53529
      ],
      [
       -99.15411,
       19.54008
      ],
      [
       -99.15108,
       19.54485
      ],
      [
       -99.15865,
       19.54832
      ],
      [
       -99.15853,
       19.54882
      ],
      [
       -99.15938,
       19.54898
      ],
      [
       -99.15921,
       19.5492
      ],
      [
       -99.1609,
       19.54926
      ],
      [
       -99.15809,
       19.55369
      ],
      [
       -99.15757,
       19.55505
      ],
      [
       -99.1581,
       19.55735
      ],
      [
       -99.15614,
       19.56015
      ],
      [
       -99.15424,
       19.56138
      ],
      [
       -99.15281,
       19.56196
      ],
      [
       -99.15162,
       19.56138
      ],
      [
       -99.1509,
       19.56052
      ],
      [
       -99.14919,
       19.56201
      ],
      [
       -99.146,
       19.5659
      ],
      [
       -99.14581,
       19.56875
      ],
      [
       -99.14476,
       19.57083
      ],
      [
       -99.14367,
       19.57218
      ],
      [
       -99.13957,
       19.5754
      ],
      [
       -99.13914,
       19.57847
      ],
      [
       -99.1379,
       19.58113
      ],
      [
       -99.13376,
       19.58489
      ],
      [
       -99.13376,
       19.58624
      ],
      [
       -99.12699,
       19.58851
      ],
      [
       -99.12371,
       19.59276
      ],
      [
       -99.11946,
       19.59199
      ],
      [
       -99.11789,
       19.59059
      ],
      [
       -99.1186,
       19.58446
      ],
      [
       -99.11691,
       19.58144
      ],
      [
       -99.11466,
       19.5798
      ],
      [
       -99.11182,
       19.56873
      ],
      [
       -99.1081,
       19.56489
      ]
     ]
    ]
   }
  }
 ]
}
