{"type":"FeatureCollection","name":"Perimetro oficial de la Ciudad de Mexico (INEGI, CVEGEO 09)","features":[{"type":"Feature","properties":{"clase":"mascara"},"geometry":{"type":"Polygon","coordinates":[[[-130.0,0.0],[-130.0,45.0],[-60.0,45.0],[-60.0,0.0],[-130.0,0.0]],[[-99.11181804957745,19.568726921060136],[-99.11466171977409,19.579796310144467],[-99.11690614038427,19.581444599901623],[-99.1185975696869,19.584461719994668],[-99.11788785023799,19.590592309581773],[-99.1194622202042,19.59199198004259],[-99.12370608971929,19.592757279801788],[-99.1269926003555,19.58850768996498],[-99.13376085007995,19.586243630200837],[-99.133759748833,19.584888109595116],[-99.13790437986367,19.58113470959607],[-99.13914168041232,19.578467890389568],[-99.13956813953669,19.575395049557386],[-99.14366518004712,19.57218376983161],[-99.14476045023886,19.57082737044633],[-99.14580738036517,19.568748050045475],[-99.14599555033112,19.56590129015418],[-99.14918591961631,19.56201285031744],[-99.15090062877107,19.56052034996812],[-99.15161645003458,19.561378259720648],[-99.15280870884541,19.56196465975887],[-99.15423821911159,19.561376060995364],[-99.15614379889463,19.560154450613947],[-99.15809551926927,19.557351340048935],[-99.15756896992585,19.555047400468432],[-99.15809202002252,19.553691420798717],[-99.16089999976906,19.54926088026961],[-99.15920828988436,19.54920231017889],[-99.15938016898727,19.54898025063144],[-99.1585285199493,19.54882109002171],[-99.15864577974477,19.548320321141183],[-99.15108489023959,19.54484570989762],[-99.15410785041009,19.540080140267406],[-99.1580449696396,19.535288999990552],[-99.15851348023739,19.533921029579265],[-99.15584725010937,19.532440479651694],[-99.15859871970329,19.528857860366966],[-99.15679812027022,19.52809077004917],[-99.15915865011263,19.526903350038133],[-99.16767249017758,19.529250770184643],[-99.17495412002361,19.531878109629943],[-99.17601146018139,19.532036049677036],[-99.17627856973616,19.530642570319007],[-99.17704574038643,19.52932847975321],[-99.17615357979139,19.52887352014117],[-99.17536094969364,19.530094620367798],[-99.1713672798208,19.527188519935486],[-99.17463071016321,19.524065029657933],[-99.1741822904297,19.523465619597832],[-99.16996265959524,19.522055430430992],[-99.16297519975927,19.517961489895168],[-99.15718110989964,19.50284888958098],[-99.16707814994005,19.506092420302704],[-99.17304285025776,19.508586709954038],[-99.1755380902594,19.50745602044236],[-99.17705041957775,19.506194909918484],[-99.18229079974844,19.507469800014505],[-99.18843113992547,19.50994852044947],[-99.19149842022033,19.51057952033822],[-99.19189794953441,19.51127311073238],[-99.20467164967798,19.51513596975102],[-99.20925754036561,19.5124090201208],[-99.21016417026715,19.51113912043565],[-99.21105242018774,19.50844451014138],[-99.21199249028271,19.503510720428835],[-99.21350080044421,19.498275429988823],[-99.21966274961237,19.480314479937718],[-99.22111506025425,19.475068480431048],[-99.20682496967206,19.47121508042818],[-99.20717364967248,19.46956811995022],[-99.20886265022439,19.470082320108222],[-99.21153665985199,19.467993350351662],[-99.21172882041641,19.467137859602243],[-99.21214839953045,19.467113910173776],[-99.21354442967272,19.462918999597985],[-99.21263148958998,19.462451350380036],[-99.21393934994536,19.460405850252187],[-99.21424792000283,19.4585588203699],[-99.21528512000413,19.45622385958274],[-99.21736482026762,19.45367110962283],[-99.2185225996185,19.453054089879622],[-99.21997277961509,19.45288013964942],[-99.22014872020186,19.446116350332254],[-99.21953616953327,19.445017200330096],[-99.21813294974237,19.444111830875812],[-99.22058282039538,19.443675319554597],[-99.22962747903529,19.4373746639538],[-99.22854176867942,19.436809984225857],[-99.22869512892147,19.43671151718669],[-99.22816037141047,19.43604595817714],[-99.227283969835,19.435867420080477],[-99.22743032039789,19.434944719964772],[-99.22617134932077,19.433965341049063],[-99.22681802869482,19.431338249577813],[-99.2233783398186,19.429505060073513],[-99.22227442896572,19.427022969907217],[-99.22280364876295,19.42636752083077],[-99.22446754883228,19.42708004999923],[-99.22546287959742,19.42658732095347],[-99.2270171694866,19.424319580495624],[-99.22772897967617,19.424182979785048],[-99.22787522961585,19.423603800790417],[-99.22845679893007,19.423419109973764],[-99.22938353906416,19.422204539761243],[-99.23084345859544,19.421706890343444],[-99.2318171191426,19.419990480921022],[-99.23235681919714,19.419792750791384],[-99.23246641992654,19.41942052021707],[-99.23297404959347,19.419395030164093],[-99.23361252039128,19.41658488067924],[-99.23425257947673,19.416688450268104],[-99.23462717021546,19.415970920079964],[-99.2354472000398,19.415435799876622],[-99.23730470980567,19.41235962020807],[-99.23840035038147,19.412007290750573],[-99.23991184987254,19.41219367987583],[-99.24083026018701,19.411918320237156],[-99.24370019956174,19.410526680381576],[-99.24422597026876,19.409941580251576],[-99.24831196961928,19.408648580258248],[-99.25094168037667,19.40641643030738],[-99.25283890988686,19.405739120440742],[-99.25333660033562,19.405094520226186],[-99.25434674959337,19.4048631098688],[-99.25603810865779,19.403561490248556],[-99.25601347988942,19.402535749633074],[-99.25697935013844,19.400431691154232],[-99.25823373954087,19.402526381269592],[-99.25769774015151,19.404848030089898],[-99.25813004977526,19.40476348110763],[-99.25882539973624,19.40374890996597],[-99.25922577878293,19.40176503097575],[-99.25907417033932,19.401462780825643],[-99.26114022005966,19.399647290791673],[-99.26145576931908,19.398504509319025],[-99.26127152966673,19.397403706094725],[-99.26171793286885,19.39598893602648],[-99.26510210143411,19.39372718184498],[-99.26510968608324,19.393194816068412],[-99.26600031423752,19.393195318676998],[-99.26598956882066,19.392738137043914],[-99.26710368639006,19.39207100093179],[-99.26815929340215,19.39244908812578],[-99.26947744910323,19.391362310680528],[-99.2695695194424,19.390383820292968],[-99.27243249023842,19.389678420198184],[-99.27277575005027,19.389379939947606],[-99.27321496924382,19.38758686083947],[-99.27368511021258,19.38703672014809],[-99.27606936880527,19.385192120876123],[-99.27604301890266,19.385582219563695],[-99.28003511329996,19.382268218655902],[-99.28177287894829,19.381476139876035],[-99.28283047968117,19.38140400122945],[-99.28381128910934,19.379667970069008],[-99.2844605193127,19.37976094099897],[-99.28504401973103,19.37905085959408],[-99.28507189026098,19.377999181258154],[-99.28566863030133,19.37763111040862],[-99.28569702965088,19.376439110444963],[-99.28766791999479,19.376682170260498],[-99.28864450992651,19.375114620894482],[-99.29061394013321,19.375022539776072],[-99.29117572011802,19.373487199947213],[-99.2920551997477,19.373283599641475],[-99.29323322036242,19.371917369929495],[-99.29388936983976,19.37014724968285],[-99.29477134032255,19.36986468043502],[-99.29558729020063,19.369077290497007],[-99.29791713913701,19.369324949694516],[-99.29843844901191,19.36887977112106],[-99.29901977958525,19.36751525976571],[-99.3012315699074,19.369700450078252],[-99.30088665971182,19.37061807986866],[-99.30096314025359,19.371769249993996],[-99.3019384496226,19.375756920287596],[-99.30130905004802,19.377083829893394],[-99.30348343015429,19.377830030016675],[-99.30500526034393,19.37683343017506],[-99.30612691969787,19.37359994028015],[-99.30776485948073,19.37156116963683],[-99.3092807489867,19.371584831236035],[-99.31070688999407,19.370407659901236],[-99.31308764957137,19.370448739892254],[-99.31538974988088,19.365888349769403],[-99.31686154988935,19.366306520067383],[-99.31760763022939,19.365729520198336],[-99.31811824926582,19.36415646104904],[-99.31954277968754,19.36361805001268],[-99.32069895008111,19.360443799595554],[-99.3181340186765,19.358156419784166],[-99.3191522193397,19.357628149550877],[-99.32010827959523,19.357715049789576],[-99.32221908988814,19.35866091097667],[-99.32328581911719,19.358337659799343],[-99.32376351014695,19.357952580775017],[-99.32639199930813,19.353671630684932],[-99.3274313400057,19.354133681181636],[-99.32848442041542,19.35309237988484],[-99.32882422988956,19.352104649654876],[-99.32864611022923,19.351381540008813],[-99.32885154858765,19.35035621998101],[-99.32832688004777,19.34948734031599],[-99.32869654001465,19.347896629996256],[-99.32844728964619,19.346819229916967],[-99.32888131979767,19.345624350034257],[-99.32827225956824,19.34520243020497],[-99.32972743011157,19.341622459764537],[-99.33033048948744,19.34098723043264],[-99.33066636958368,19.340063220412937],[-99.33115195000724,19.33977562984599],[-99.33230695009512,19.333518109763638],[-99.33384207971834,19.33059039970754],[-99.35660784976251,19.306675799885372],[-99.35627424999737,19.302014520367674],[-99.34998526044097,19.296837179867897],[-99.35349777991105,19.297401849843634],[-99.35292381961561,19.296047399797416],[-99.3512558603727,19.29496614968266],[-99.35149208980424,19.294152379885276],[-99.35241382015946,19.29399413978252],[-99.35347160042505,19.293383920419846],[-99.35453603024992,19.293288019855297],[-99.35358134954512,19.291934309693],[-99.36492420018587,19.27776925022221],[-99.36192190993589,19.275741860393815],[-99.3482137098716,19.27396095007346],[-99.34629681964414,19.272022119851535],[-99.34584570992774,19.270806750278968],[-99.34468660009655,19.269475230002715],[-99.34305965997073,19.268547659922216],[-99.34093897996279,19.267797799730687],[-99.33915988957132,19.267697149780226],[-99.33762984982495,19.264039969979816],[-99.33985723015363,19.259652910198586],[-99.3420686795547,19.247539199663713],[-99.34234097007713,19.241122399590804],[-99.33082148004195,19.237935289963925],[-99.32671960041729,19.232565570178544],[-99.32129650960437,19.23266547997201],[-99.31534334999093,19.229196490310333],[-99.31624974975814,19.221501679820545],[-99.30713553981079,19.213728459670715],[-99.30613062980424,19.206143740350477],[-99.3046865103799,19.202645350109275],[-99.30276265033592,19.19085508999993],[-99.30133143000057,19.188417420024262],[-99.30018311987473,19.18457851042655],[-99.29559684983242,19.17288280009452],[-99.2876052504715,19.146600569575224],[-99.27869521923326,19.131701722554144],[-99.22677778040446,19.09606000350478],[-99.1353790181171,19.089296070897],[-99.10691674784952,19.072830123915768],[-99.05980023203274,19.04823666290047],[-99.04320886424232,19.075755461062236],[-99.02899368179851,19.085368792355162],[-98.98359448558632,19.078763251047896],[-98.97899540233968,19.07445595074282],[-98.97369661983902,19.079553169670845],[-98.96828358018259,19.083140879639632],[-98.96572147982322,19.085861170043305],[-98.96326577022778,19.09206277997417],[-98.96123978043845,19.095583180033806],[-98.95906350953327,19.1042779502315],[-98.9589566597728,19.109042719994875],[-98.95840974975006,19.111309400420108],[-98.95870200006638,19.113638510317003],[-98.95765602989215,19.11963102036549],[-98.95750748029471,19.12238321999772],[-98.96109189038935,19.13302910991877],[-98.96511271994001,19.140414820377117],[-98.96645593953163,19.143870509719246],[-98.95462630989152,19.1495243497258],[-98.96736639994234,19.16443869011058],[-98.95238565025183,19.16863761980709],[-98.95617468008125,19.176763060163566],[-98.95652174023395,19.176635220452855],[-98.95984906040633,19.179167879563924],[-98.96641034024603,19.18703166000081],[-98.96769389035707,19.189743079764188],[-98.9670258301814,19.19990986024164],[-98.96770189036354,19.203128850091296],[-98.96967856969611,19.204252909837532],[-98.96722874027331,19.20625108972141],[-98.96718134963771,19.207042250384443],[-98.96742396984074,19.207327199797025],[-98.96705179963787,19.207628599903966],[-98.96682650978352,19.208961340171502],[-98.96852791961341,19.21057108062549],[-98.96782928041587,19.21070583024598],[-98.96715678030755,19.211645419904837],[-98.96431157023055,19.213239249833318],[-98.96353534962866,19.21304425987605],[-98.96269405007074,19.21414262971585],[-98.95974488998431,19.213870859872433],[-98.96003016887815,19.214413170099057],[-98.95746127882646,19.215135539655638],[-98.95394833996303,19.214645850074554],[-98.95367174914715,19.215441620973397],[-98.9528946795674,19.21526994035261],[-98.95327515040144,19.215495969571347],[-98.95239244964087,19.21624641954757],[-98.95108554033196,19.218183710064384],[-98.94255322040894,19.215614859779162],[-98.94030282041224,19.223239650410132],[-98.96858650973391,19.23221795006782],[-98.96598687957727,19.249941000101536],[-98.97653062971055,19.253125379880206],[-98.97491757015197,19.259490519684554],[-98.97143087977925,19.278366690206582],[-98.96722392389462,19.30596933561738],[-98.96627643029015,19.305962490296533],[-98.96477606035448,19.3068807706456],[-98.96439331030501,19.307934690245045],[-98.96296582912512,19.316727380942368],[-98.957902629447,19.323227620606037],[-98.97432514948308,19.337026569993025],[-98.97547967945958,19.338329770108473],[-98.9787933197964,19.343289280040338],[-98.99455665947981,19.35814132085132],[-98.9944477791129,19.358846111168166],[-98.99346759933748,19.360383720200367],[-98.9917553791578,19.36700376982772],[-98.9919391776859,19.367598709993977],[-99.01016470986458,19.378325197738747],[-99.01957205014061,19.383256349809457],[-99.05813571968781,19.400692149913276],[-99.05640108960145,19.41750743018855],[-99.05583626012402,19.421961229705524],[-99.0551964302311,19.424273369830434],[-99.04820907978034,19.439637109739856],[-99.0464590662131,19.44236456197745],[-99.04714077947077,19.443130920204347],[-99.05111965993906,19.450639110396878],[-99.0633610197057,19.47860928022924],[-99.06299704981956,19.479819319834665],[-99.0636103704467,19.479969569911333],[-99.063277820298,19.481267649898964],[-99.06485289013857,19.48183597021706],[-99.06799134015,19.489083219755223],[-99.06386253977477,19.49877871093439],[-99.07721536986712,19.503884600186073],[-99.09739952005647,19.51263124971608],[-99.10343071976385,19.51128621967021],[-99.1055157104278,19.510328139714357],[-99.10593158010869,19.509886370010438],[-99.10673952005446,19.510445050020845],[-99.10730429011429,19.509685000322918],[-99.10763552001616,19.51102654988039],[-99.1078385799265,19.510462490207342],[-99.10864562968679,19.51049127981988],[-99.1089740895922,19.511110350183962],[-99.10943307954678,19.51031197012707],[-99.11058930895643,19.511173140798455],[-99.11440710953353,19.51106082041116],[-99.11592876939878,19.51305177018413],[-99.11688191963749,19.513236889839806],[-99.12101471944412,19.51629165023044],[-99.12527637971898,19.52049994040066],[-99.12738434965479,19.524067600796137],[-99.12800457885271,19.52453112057196],[-99.12818363006349,19.52588129044453],[-99.1273779102236,19.531710661325445],[-99.1273676604147,19.535083910095395],[-99.13057459965863,19.536091289745908],[-99.12814642032515,19.53939148025102],[-99.12273297033967,19.54544371083451],[-99.12103573914636,19.5491319505866],[-99.11848011859759,19.55218522060308],[-99.11562145992879,19.55403962108467],[-99.11571862955,19.55666026125664],[-99.10809722039527,19.564888490540586],[-99.11181804957745,19.568726921060136]]]}},{"type":"Feature","properties":{"clase":"contorno","NOMGEO":"Ciudad de México","CVEGEO":"09"},"geometry":{"type":"Polygon","coordinates":[[[-99.10809722039527,19.564888490540586],[-99.11571862955,19.55666026125664],[-99.11562145992879,19.55403962108467],[-99.11848011859759,19.55218522060308],[-99.12103573914636,19.5491319505866],[-99.12273297033967,19.54544371083451],[-99.12814642032515,19.53939148025102],[-99.13057459965863,19.536091289745908],[-99.1273676604147,19.535083910095395],[-99.1273779102236,19.531710661325445],[-99.12818363006349,19.52588129044453],[-99.12800457885271,19.52453112057196],[-99.12738434965479,19.524067600796137],[-99.12527637971898,19.52049994040066],[-99.12101471944412,19.51629165023044],[-99.11688191963749,19.513236889839806],[-99.11592876939878,19.51305177018413],[-99.11440710953353,19.51106082041116],[-99.11058930895643,19.511173140798455],[-99.10943307954678,19.51031197012707],[-99.1089740895922,19.511110350183962],[-99.10864562968679,19.51049127981988],[-99.1078385799265,19.510462490207342],[-99.10763552001616,19.51102654988039],[-99.10730429011429,19.509685000322918],[-99.10673952005446,19.510445050020845],[-99.10593158010869,19.509886370010438],[-99.1055157104278,19.510328139714357],[-99.10343071976385,19.51128621967021],[-99.09739952005647,19.51263124971608],[-99.07721536986712,19.503884600186073],[-99.06386253977477,19.49877871093439],[-99.06799134015,19.489083219755223],[-99.06485289013857,19.48183597021706],[-99.063277820298,19.481267649898964],[-99.0636103704467,19.479969569911333],[-99.06299704981956,19.479819319834665],[-99.0633610197057,19.47860928022924],[-99.05111965993906,19.450639110396878],[-99.04714077947077,19.443130920204347],[-99.0464590662131,19.44236456197745],[-99.04820907978034,19.439637109739856],[-99.0551964302311,19.424273369830434],[-99.05583626012402,19.421961229705524],[-99.05640108960145,19.41750743018855],[-99.05813571968781,19.400692149913276],[-99.01957205014061,19.383256349809457],[-99.01016470986458,19.378325197738747],[-98.9919391776859,19.367598709993977],[-98.9917553791578,19.36700376982772],[-98.99346759933748,19.360383720200367],[-98.9944477791129,19.358846111168166],[-98.99455665947981,19.35814132085132],[-98.9787933197964,19.343289280040338],[-98.97547967945958,19.338329770108473],[-98.97432514948308,19.337026569993025],[-98.957902629447,19.323227620606037],[-98.96296582912512,19.316727380942368],[-98.96439331030501,19.307934690245045],[-98.96477606035448,19.3068807706456],[-98.96627643029015,19.305962490296533],[-98.96722392389462,19.30596933561738],[-98.97143087977925,19.278366690206582],[-98.97491757015197,19.259490519684554],[-98.97653062971055,19.253125379880206],[-98.96598687957727,19.249941000101536],[-98.96858650973391,19.23221795006782],[-98.94030282041224,19.223239650410132],[-98.94255322040894,19.215614859779162],[-98.95108554033196,19.218183710064384],[-98.95239244964087,19.21624641954757],[-98.95327515040144,19.215495969571347],[-98.9528946795674,19.21526994035261],[-98.95367174914715,19.215441620973397],[-98.95394833996303,19.214645850074554],[-98.95746127882646,19.215135539655638],[-98.96003016887815,19.214413170099057],[-98.95974488998431,19.213870859872433],[-98.96269405007074,19.21414262971585],[-98.96353534962866,19.21304425987605],[-98.96431157023055,19.213239249833318],[-98.96715678030755,19.211645419904837],[-98.96782928041587,19.21070583024598],[-98.96852791961341,19.21057108062549],[-98.96682650978352,19.208961340171502],[-98.96705179963787,19.207628599903966],[-98.96742396984074,19.207327199797025],[-98.96718134963771,19.207042250384443],[-98.96722874027331,19.20625108972141],[-98.96967856969611,19.204252909837532],[-98.96770189036354,19.203128850091296],[-98.9670258301814,19.19990986024164],[-98.96769389035707,19.189743079764188],[-98.96641034024603,19.18703166000081],[-98.95984906040633,19.179167879563924],[-98.95652174023395,19.176635220452855],[-98.95617468008125,19.176763060163566],[-98.95238565025183,19.16863761980709],[-98.96736639994234,19.16443869011058],[-98.95462630989152,19.1495243497258],[-98.96645593953163,19.143870509719246],[-98.96511271994001,19.140414820377117],[-98.96109189038935,19.13302910991877],[-98.95750748029471,19.12238321999772],[-98.95765602989215,19.11963102036549],[-98.95870200006638,19.113638510317003],[-98.95840974975006,19.111309400420108],[-98.9589566597728,19.109042719994875],[-98.95906350953327,19.1042779502315],[-98.96123978043845,19.095583180033806],[-98.96326577022778,19.09206277997417],[-98.96572147982322,19.085861170043305],[-98.96828358018259,19.083140879639632],[-98.97369661983902,19.079553169670845],[-98.97899540233968,19.07445595074282],[-98.98359448558632,19.078763251047896],[-99.02899368179851,19.085368792355162],[-99.04320886424232,19.075755461062236],[-99.05980023203274,19.04823666290047],[-99.10691674784952,19.072830123915768],[-99.1353790181171,19.089296070897],[-99.22677778040446,19.09606000350478],[-99.27869521923326,19.131701722554144],[-99.2876052504715,19.146600569575224],[-99.29559684983242,19.17288280009452],[-99.30018311987473,19.18457851042655],[-99.30133143000057,19.188417420024262],[-99.30276265033592,19.19085508999993],[-99.3046865103799,19.202645350109275],[-99.30613062980424,19.206143740350477],[-99.30713553981079,19.213728459670715],[-99.31624974975814,19.221501679820545],[-99.31534334999093,19.229196490310333],[-99.32129650960437,19.23266547997201],[-99.32671960041729,19.232565570178544],[-99.33082148004195,19.237935289963925],[-99.34234097007713,19.241122399590804],[-99.3420686795547,19.247539199663713],[-99.33985723015363,19.259652910198586],[-99.33762984982495,19.264039969979816],[-99.33915988957132,19.267697149780226],[-99.34093897996279,19.267797799730687],[-99.34305965997073,19.268547659922216],[-99.34468660009655,19.269475230002715],[-99.34584570992774,19.270806750278968],[-99.34629681964414,19.272022119851535],[-99.3482137098716,19.27396095007346],[-99.36192190993589,19.275741860393815],[-99.36492420018587,19.27776925022221],[-99.35358134954512,19.291934309693],[-99.35453603024992,19.293288019855297],[-99.35347160042505,19.293383920419846],[-99.35241382015946,19.29399413978252],[-99.35149208980424,19.294152379885276],[-99.3512558603727,19.29496614968266],[-99.35292381961561,19.296047399797416],[-99.35349777991105,19.297401849843634],[-99.34998526044097,19.296837179867897],[-99.35627424999737,19.302014520367674],[-99.35660784976251,19.306675799885372],[-99.33384207971834,19.33059039970754],[-99.33230695009512,19.333518109763638],[-99.33115195000724,19.33977562984599],[-99.33066636958368,19.340063220412937],[-99.33033048948744,19.34098723043264],[-99.32972743011157,19.341622459764537],[-99.32827225956824,19.34520243020497],[-99.32888131979767,19.345624350034257],[-99.32844728964619,19.346819229916967],[-99.32869654001465,19.347896629996256],[-99.32832688004777,19.34948734031599],[-99.32885154858765,19.35035621998101],[-99.32864611022923,19.351381540008813],[-99.32882422988956,19.352104649654876],[-99.32848442041542,19.35309237988484],[-99.3274313400057,19.354133681181636],[-99.32639199930813,19.353671630684932],[-99.32376351014695,19.357952580775017],[-99.32328581911719,19.358337659799343],[-99.32221908988814,19.35866091097667],[-99.32010827959523,19.357715049789576],[-99.3191522193397,19.357628149550877],[-99.3181340186765,19.358156419784166],[-99.32069895008111,19.360443799595554],[-99.31954277968754,19.36361805001268],[-99.31811824926582,19.36415646104904],[-99.31760763022939,19.365729520198336],[-99.31686154988935,19.366306520067383],[-99.31538974988088,19.365888349769403],[-99.31308764957137,19.370448739892254],[-99.31070688999407,19.370407659901236],[-99.3092807489867,19.371584831236035],[-99.30776485948073,19.37156116963683],[-99.30612691969787,19.37359994028015],[-99.30500526034393,19.37683343017506],[-99.30348343015429,19.377830030016675],[-99.30130905004802,19.377083829893394],[-99.3019384496226,19.375756920287596],[-99.30096314025359,19.371769249993996],[-99.30088665971182,19.37061807986866],[-99.3012315699074,19.369700450078252],[-99.29901977958525,19.36751525976571],[-99.29843844901191,19.36887977112106],[-99.29791713913701,19.369324949694516],[-99.29558729020063,19.369077290497007],[-99.29477134032255,19.36986468043502],[-99.29388936983976,19.37014724968285],[-99.29323322036242,19.371917369929495],[-99.2920551997477,19.373283599641475],[-99.29117572011802,19.373487199947213],[-99.29061394013321,19.375022539776072],[-99.28864450992651,19.375114620894482],[-99.28766791999479,19.376682170260498],[-99.28569702965088,19.376439110444963],[-99.28566863030133,19.37763111040862],[-99.28507189026098,19.377999181258154],[-99.28504401973103,19.37905085959408],[-99.2844605193127,19.37976094099897],[-99.28381128910934,19.379667970069008],[-99.28283047968117,19.38140400122945],[-99.28177287894829,19.381476139876035],[-99.28003511329996,19.382268218655902],[-99.27604301890266,19.385582219563695],[-99.27606936880527,19.385192120876123],[-99.27368511021258,19.38703672014809],[-99.27321496924382,19.38758686083947],[-99.27277575005027,19.389379939947606],[-99.27243249023842,19.389678420198184],[-99.2695695194424,19.390383820292968],[-99.26947744910323,19.391362310680528],[-99.26815929340215,19.39244908812578],[-99.26710368639006,19.39207100093179],[-99.26598956882066,19.392738137043914],[-99.26600031423752,19.393195318676998],[-99.26510968608324,19.393194816068412],[-99.26510210143411,19.39372718184498],[-99.26171793286885,19.39598893602648],[-99.26127152966673,19.397403706094725],[-99.26145576931908,19.398504509319025],[-99.26114022005966,19.399647290791673],[-99.25907417033932,19.401462780825643],[-99.25922577878293,19.40176503097575],[-99.25882539973624,19.40374890996597],[-99.25813004977526,19.40476348110763],[-99.25769774015151,19.404848030089898],[-99.25823373954087,19.402526381269592],[-99.25697935013844,19.400431691154232],[-99.25601347988942,19.402535749633074],[-99.25603810865779,19.403561490248556],[-99.25434674959337,19.4048631098688],[-99.25333660033562,19.405094520226186],[-99.25283890988686,19.405739120440742],[-99.25094168037667,19.40641643030738],[-99.24831196961928,19.408648580258248],[-99.24422597026876,19.409941580251576],[-99.24370019956174,19.410526680381576],[-99.24083026018701,19.411918320237156],[-99.23991184987254,19.41219367987583],[-99.23840035038147,19.412007290750573],[-99.23730470980567,19.41235962020807],[-99.2354472000398,19.415435799876622],[-99.23462717021546,19.415970920079964],[-99.23425257947673,19.416688450268104],[-99.23361252039128,19.41658488067924],[-99.23297404959347,19.419395030164093],[-99.23246641992654,19.41942052021707],[-99.23235681919714,19.419792750791384],[-99.2318171191426,19.419990480921022],[-99.23084345859544,19.421706890343444],[-99.22938353906416,19.422204539761243],[-99.22845679893007,19.423419109973764],[-99.22787522961585,19.423603800790417],[-99.22772897967617,19.424182979785048],[-99.2270171694866,19.424319580495624],[-99.22546287959742,19.42658732095347],[-99.22446754883228,19.42708004999923],[-99.22280364876295,19.42636752083077],[-99.22227442896572,19.427022969907217],[-99.2233783398186,19.429505060073513],[-99.22681802869482,19.431338249577813],[-99.22617134932077,19.433965341049063],[-99.22743032039789,19.434944719964772],[-99.227283969835,19.435867420080477],[-99.22816037141047,19.43604595817714],[-99.22869512892147,19.43671151718669],[-99.22854176867942,19.436809984225857],[-99.22962747903529,19.4373746639538],[-99.22058282039538,19.443675319554597],[-99.21813294974237,19.444111830875812],[-99.21953616953327,19.445017200330096],[-99.22014872020186,19.446116350332254],[-99.21997277961509,19.45288013964942],[-99.2185225996185,19.453054089879622],[-99.21736482026762,19.45367110962283],[-99.21528512000413,19.45622385958274],[-99.21424792000283,19.4585588203699],[-99.21393934994536,19.460405850252187],[-99.21263148958998,19.462451350380036],[-99.21354442967272,19.462918999597985],[-99.21214839953045,19.467113910173776],[-99.21172882041641,19.467137859602243],[-99.21153665985199,19.467993350351662],[-99.20886265022439,19.470082320108222],[-99.20717364967248,19.46956811995022],[-99.20682496967206,19.47121508042818],[-99.22111506025425,19.475068480431048],[-99.21966274961237,19.480314479937718],[-99.21350080044421,19.498275429988823],[-99.21199249028271,19.503510720428835],[-99.21105242018774,19.50844451014138],[-99.21016417026715,19.51113912043565],[-99.20925754036561,19.5124090201208],[-99.20467164967798,19.51513596975102],[-99.19189794953441,19.51127311073238],[-99.19149842022033,19.51057952033822],[-99.18843113992547,19.50994852044947],[-99.18229079974844,19.507469800014505],[-99.17705041957775,19.506194909918484],[-99.1755380902594,19.50745602044236],[-99.17304285025776,19.508586709954038],[-99.16707814994005,19.506092420302704],[-99.15718110989964,19.50284888958098],[-99.16297519975927,19.517961489895168],[-99.16996265959524,19.522055430430992],[-99.1741822904297,19.523465619597832],[-99.17463071016321,19.524065029657933],[-99.1713672798208,19.527188519935486],[-99.17536094969364,19.530094620367798],[-99.17615357979139,19.52887352014117],[-99.17704574038643,19.52932847975321],[-99.17627856973616,19.530642570319007],[-99.17601146018139,19.532036049677036],[-99.17495412002361,19.531878109629943],[-99.16767249017758,19.529250770184643],[-99.15915865011263,19.526903350038133],[-99.15679812027022,19.52809077004917],[-99.15859871970329,19.528857860366966],[-99.15584725010937,19.532440479651694],[-99.15851348023739,19.533921029579265],[-99.1580449696396,19.535288999990552],[-99.15410785041009,19.540080140267406],[-99.15108489023959,19.54484570989762],[-99.15864577974477,19.548320321141183],[-99.1585285199493,19.54882109002171],[-99.15938016898727,19.54898025063144],[-99.15920828988436,19.54920231017889],[-99.16089999976906,19.54926088026961],[-99.15809202002252,19.553691420798717],[-99.15756896992585,19.555047400468432],[-99.15809551926927,19.557351340048935],[-99.15614379889463,19.560154450613947],[-99.15423821911159,19.561376060995364],[-99.15280870884541,19.56196465975887],[-99.15161645003458,19.561378259720648],[-99.15090062877107,19.56052034996812],[-99.14918591961631,19.56201285031744],[-99.14599555033112,19.56590129015418],[-99.14580738036517,19.568748050045475],[-99.14476045023886,19.57082737044633],[-99.14366518004712,19.57218376983161],[-99.13956813953669,19.575395049557386],[-99.13914168041232,19.578467890389568],[-99.13790437986367,19.58113470959607],[-99.133759748833,19.584888109595116],[-99.13376085007995,19.586243630200837],[-99.1269926003555,19.58850768996498],[-99.12370608971929,19.592757279801788],[-99.1194622202042,19.59199198004259],[-99.11788785023799,19.590592309581773],[-99.1185975696869,19.584461719994668],[-99.11690614038427,19.581444599901623],[-99.11466171977409,19.579796310144467],[-99.11181804957745,19.568726921060136],[-99.10809722039527,19.564888490540586]]]}}]}